{"type":"FeatureCollection","features":[{"type":"Feature","properties":{"line":"sillim","ref":"Silim","name":"서울 경전철 신림선: 관악산 → 샛강","color":"#6789CA"},"geometry":{"type":"LineString","coordinates":[[126.945308,37.468819],[126.944743,37.46936],[126.944693,37.469408],[126.944268,37.469815],[126.94357,37.470475],[126.943141,37.470784],[126.94281,37.470924],[126.942501,37.471003],[126.942008,37.471007],[126.940496,37.470878],[126.93956,37.470755],[126.937149,37.471013],[126.935152,37.471296],[126.934578,37.471507],[126.933929,37.471868],[126.933742,37.472048],[126.933599,37.472233],[126.933485,37.472475],[126.933421,37.472746],[126.933413,37.472891],[126.933427,37.473095],[126.933624,37.473421],[126.933906,37.473638],[126.934194,37.473804],[126.935268,37.474382],[126.936106,37.474913],[126.93649,37.475161],[126.936685,37.475318],[126.936872,37.475454],[126.93706,37.475696],[126.937102,37.47607],[126.937009,37.476447],[126.936852,37.476773],[126.936639,37.476997],[126.936375,37.47714],[126.935897,37.477303],[126.934774,37.477662],[126.933824,37.477946],[126.933481,37.478042],[126.933298,37.478108],[126.9331,37.478197],[126.932865,37.478354],[126.931331,37.47957],[126.930608,37.480261],[126.9303,37.48068],[126.930028,37.481254],[126.929897,37.482149],[126.929724,37.483791],[126.929651,37.484852],[126.929643,37.485173],[126.92949,37.485857],[126.92939,37.486124],[126.929044,37.487054],[126.928312,37.488725],[126.927818,37.48973],[126.927504,37.490379],[126.927032,37.491821],[126.926924,37.492244],[126.926682,37.492585],[126.926367,37.492744],[126.925915,37.492824],[126.924322,37.49304],[126.921125,37.493474],[126.919487,37.493676],[126.918979,37.493885],[126.918786,37.494096],[126.918449,37.494867],[126.91828,37.495305],[126.918039,37.495927],[126.917858,37.49643],[126.917815,37.496654],[126.917847,37.496889],[126.917912,37.497034],[126.918021,37.497178],[126.918422,37.497337],[126.919168,37.497511],[126.919635,37.497645],[126.919932,37.497837],[126.920217,37.498178],[126.920288,37.498304],[126.92037,37.499384],[126.920396,37.499895],[126.920468,37.500142],[126.920526,37.500284],[126.920556,37.50036],[126.920766,37.500903],[126.921616,37.502956],[126.922217,37.504577],[126.922577,37.505432],[126.922749,37.50586],[126.922782,37.505941],[126.92282,37.506035],[126.923332,37.507294],[126.924895,37.51106],[126.92521,37.512497],[126.925247,37.512667],[126.925339,37.512886],[126.925476,37.513174],[126.92583,37.513541],[126.926047,37.513694],[126.926737,37.514122],[126.927173,37.514373],[126.927862,37.514734],[126.928066,37.5149],[126.928183,37.515099],[126.92828,37.515332],[126.928349,37.515656],[126.928405,37.51592],[126.928526,37.516156],[126.928765,37.516502],[126.929446,37.517269]]}},{"type":"Feature","properties":{"line":"sillim","ref":"Silim","name":"서울 경전철 신림선: 샛강 → 관악산","color":"#6789CA"},"geometry":{"type":"LineString","coordinates":[[126.929346,37.51734],[126.928698,37.516588],[126.928536,37.516403],[126.928394,37.516176],[126.928293,37.515865],[126.928232,37.515617],[126.928172,37.515391],[126.928103,37.515169],[126.927989,37.515025],[126.92783,37.51482],[126.92705,37.514385],[126.926223,37.513896],[126.925953,37.513737],[126.925814,37.513633],[126.925698,37.513547],[126.925345,37.513211],[126.925153,37.512755],[126.925097,37.512611],[126.925067,37.512516],[126.925015,37.512345],[126.924739,37.511002],[126.92355,37.508286],[126.922796,37.50635],[126.922649,37.50597],[126.922615,37.505884],[126.920428,37.50038],[126.920397,37.500301],[126.920295,37.49991],[126.920265,37.499414],[126.920203,37.498467],[126.920111,37.49823],[126.919974,37.49805],[126.919818,37.49791],[126.919484,37.497697],[126.919065,37.497548],[126.918361,37.497408],[126.918099,37.497344],[126.917869,37.497247],[126.917733,37.497109],[126.917662,37.497005],[126.917651,37.496719],[126.917677,37.496479],[126.917874,37.495878],[126.918121,37.495248],[126.918594,37.494232],[126.918784,37.493879],[126.919082,37.49371],[126.919328,37.49361],[126.920193,37.493498],[126.920634,37.493436],[126.920777,37.493416],[126.921016,37.493382],[126.921241,37.49335],[126.923046,37.493095],[126.923442,37.493039],[126.924284,37.492916],[126.92588,37.492685],[126.926234,37.492591],[126.926484,37.492444],[126.926818,37.49217],[126.927444,37.490422],[126.927764,37.489725],[126.928291,37.488625],[126.92926,37.486209],[126.929511,37.485166],[126.92956,37.484843],[126.929697,37.483499],[126.929839,37.481388],[126.930042,37.480894],[126.930243,37.480493],[126.930604,37.480104],[126.931798,37.479033],[126.932347,37.478607],[126.932733,37.478342],[126.932955,37.478183],[126.933254,37.478042],[126.933767,37.477888],[126.935093,37.47746],[126.935877,37.477211],[126.936398,37.476961],[126.936741,37.476702],[126.936856,37.476458],[126.936964,37.476053],[126.936931,37.475815],[126.936763,37.47554],[126.93653,37.47531],[126.935239,37.474479],[126.93463,37.47416],[126.934134,37.473863],[126.93379,37.473653],[126.933645,37.473546],[126.933502,37.4734],[126.93337,37.473184],[126.933317,37.473022],[126.933314,37.472789],[126.933327,37.472692],[126.933355,37.47256],[126.933447,37.472319],[126.933536,37.472169],[126.933603,37.472047],[126.933708,37.471936],[126.933847,37.47184],[126.933979,37.471748],[126.934228,37.471634],[126.934507,37.471483],[126.935144,37.471242],[126.937124,37.470934],[126.939088,37.470687],[126.939555,37.47067],[126.941012,37.470788],[126.942005,37.470894],[126.942802,37.470807],[126.943112,37.470649],[126.943555,37.470341],[126.944385,37.469587],[126.944789,37.469193],[126.945223,37.46877]]}}]}