{"type":"FeatureCollection","features":[{"type":"Feature","properties":{"line":"busan-2","ref":"2","name":"부산 도시철도 2호선","color":"#3CB44A"},"geometry":{"type":"LineString","coordinates":[[129.180529,35.171519],[129.17763,35.170216],[129.176177,35.169593],[129.175921,35.169451]]}},{"type":"Feature","properties":{"line":"busan-2","ref":"2","name":"부산 도시철도 2호선","color":"#3CB44A"},"geometry":{"type":"LineString","coordinates":[[129.175921,35.169451],[129.175447,35.169188],[129.174365,35.168402],[129.173353,35.167668],[129.172829,35.167298],[129.17254,35.167139],[129.172225,35.167007],[129.171955,35.166923],[129.171626,35.166854],[129.170744,35.166807],[129.168728,35.1667],[129.16781,35.166652],[129.164368,35.166387],[129.163592,35.166267],[129.163002,35.166033],[129.160005,35.164354],[129.158809,35.163685],[129.156209,35.16223],[129.154772,35.161442],[129.154055,35.161059],[129.151843,35.16027],[129.151294,35.160149],[129.150636,35.160154],[129.150279,35.160269],[129.149691,35.160573],[129.148929,35.160898],[129.14809,35.161277],[129.147548,35.161564],[129.14583,35.162476],[129.143439,35.163726],[129.138475,35.168842],[129.136991,35.17037],[129.136187,35.170747],[129.135778,35.170788],[129.135339,35.170765],[129.134357,35.170359],[129.133618,35.169976]]}},{"type":"Feature","properties":{"line":"busan-2","ref":"2","name":"부산 도시철도 2호선","color":"#3CB44A"},"geometry":{"type":"LineString","coordinates":[[129.133618,35.169976],[129.132608,35.16938],[129.131199,35.168625],[129.129215,35.167563],[129.12789,35.16686],[129.127358,35.166578],[129.127328,35.166562],[129.126833,35.1663],[129.125728,35.165857],[129.125479,35.165774],[129.12476,35.165687],[129.123999,35.165897],[129.123207,35.166274],[129.122081,35.167018],[129.122001,35.167071],[129.121681,35.167283],[129.120587,35.168239],[129.119364,35.168406],[129.118559,35.168502],[129.117113,35.168019],[129.115694,35.167591],[129.115443,35.167467],[129.115206,35.167281],[129.115021,35.16699],[129.114946,35.166694],[129.114682,35.165368],[129.114589,35.165035],[129.114526,35.164744],[129.114203,35.16324],[129.113911,35.161811],[129.113444,35.159529],[129.113103,35.157927],[129.11097,35.149756],[129.109419,35.144547],[129.109215,35.143731],[129.109002,35.143274],[129.108733,35.143006],[129.107842,35.142134],[129.106222,35.14059],[129.105513,35.140037],[129.103176,35.138904],[129.103069,35.13885],[129.102969,35.138799],[129.100531,35.137558],[129.099838,35.13726],[129.099333,35.137062],[129.098187,35.136597],[129.096544,35.135861],[129.094432,35.135386],[129.092424,35.135173],[129.092172,35.135148],[129.090699,35.135105],[129.090559,35.135102],[129.087802,35.134956],[129.085751,35.13487],[129.084783,35.134758],[129.082648,35.134653],[129.082027,35.134584],[129.081042,35.134482],[129.079894,35.134061],[129.079163,35.133771],[129.07872,35.133721],[129.078241,35.133799],[129.077758,35.133957],[129.075912,35.134887],[129.074224,35.135668],[129.073467,35.13606],[129.072936,35.136351],[129.072496,35.136535],[129.071956,35.136687],[129.071269,35.136825],[129.070872,35.136881],[129.070361,35.136926],[129.069693,35.13696],[129.069246,35.136987],[129.068997,35.137035],[129.06876,35.137125],[129.06841,35.137335],[129.068148,35.137541],[129.067912,35.137862],[129.067681,35.138352],[129.067482,35.138803],[129.067331,35.139139],[129.067133,35.139639],[129.067037,35.139907],[129.066938,35.14028],[129.066878,35.140589],[129.066842,35.14089],[129.066807,35.141307],[129.066785,35.141638],[129.066765,35.143377],[129.066737,35.144589],[129.066737,35.145093],[129.066713,35.145728],[129.066693,35.14689],[129.066686,35.147145],[129.066651,35.147467],[129.06659,35.147681],[129.066517,35.147874],[129.066431,35.148064],[129.066034,35.148753],[129.065764,35.149223],[129.065543,35.149828],[129.065473,35.150143],[129.065428,35.150545],[129.065389,35.150969],[129.065364,35.152819],[129.065368,35.154442],[129.065379,35.154967],[129.065393,35.155365],[129.065451,35.155921],[129.06548,35.156325],[129.065487,35.156645],[129.065468,35.15687],[129.065429,35.157066],[129.065346,35.157285],[129.065269,35.157416],[129.065156,35.15755],[129.065037,35.157642],[129.064895,35.157709],[129.064724,35.157752],[129.064393,35.157767],[129.063848,35.157758]]}},{"type":"Feature","properties":{"line":"busan-2","ref":"2","name":"부산 도시철도 2호선","color":"#3CB44A"},"geometry":{"type":"LineString","coordinates":[[129.015235,35.264377],[129.014361,35.26269],[129.01428,35.262517],[129.012876,35.259611],[129.01192,35.257699],[129.011741,35.257309],[129.011443,35.256637],[129.010998,35.255502],[129.010783,35.254981],[129.010633,35.254582],[129.01053,35.254252],[129.010474,35.253949],[129.010457,35.253757],[129.010462,35.25359],[129.010495,35.253306],[129.010573,35.253033],[129.010729,35.252576],[129.010992,35.252167],[129.011493,35.251467],[129.011609,35.251306],[129.011889,35.250933],[129.01206,35.250692],[129.012601,35.249911],[129.012842,35.249491],[129.012902,35.249295],[129.012977,35.24901],[129.013004,35.248541],[129.012987,35.248121],[129.012956,35.247828],[129.01295,35.247742],[129.012902,35.247021],[129.012901,35.246753],[129.01287,35.246184],[129.01287,35.245479],[129.012886,35.245142],[129.013009,35.244625],[129.013267,35.24367],[129.013819,35.241773],[129.013987,35.241201],[129.014065,35.240891],[129.014077,35.240844],[129.014114,35.240603],[129.014135,35.240304],[129.014158,35.240122],[129.014117,35.239595],[129.014026,35.238284],[129.013942,35.23666],[129.013727,35.234539],[129.013349,35.23229],[129.013338,35.232222],[129.013056,35.230885],[129.013046,35.230839],[129.012451,35.228922],[129.012285,35.228409],[129.012185,35.228277],[129.01143,35.22728],[129.011257,35.227051],[129.011073,35.226811],[129.010946,35.226646],[129.010865,35.226539],[129.010607,35.226203],[129.010161,35.225609],[129.010072,35.225492],[129.009696,35.224539],[129.009508,35.224053],[129.009059,35.222924],[129.008207,35.220888],[129.008057,35.220647],[129.007958,35.220532],[129.006762,35.219315],[129.006672,35.219223],[129.005541,35.218195],[129.00538,35.217919],[129.005235,35.217639],[129.005107,35.217194],[129.005102,35.217164],[129.004526,35.214821],[129.00443,35.214424],[129.004234,35.213666],[129.004172,35.213405],[129.004192,35.213182],[129.004833,35.211221],[129.005061,35.21078],[129.00537,35.209843],[129.005413,35.209581],[129.005407,35.209379],[129.005342,35.209118],[129.004806,35.207105],[129.004591,35.206223],[129.00456,35.206124],[129.004481,35.205864],[129.004332,35.205506],[129.004229,35.205362],[129.004033,35.205189],[129.003761,35.205034],[129.003434,35.204927],[129.002531,35.204681],[129.002497,35.204675],[129.002163,35.204615],[129.001302,35.204459],[129.001238,35.204439],[129.001213,35.204431],[129.000971,35.20437],[129.000788,35.204255],[129.000527,35.203953],[129.000039,35.203374],[128.999726,35.203002],[128.999622,35.202883],[128.998002,35.20093],[128.997192,35.199789],[128.996587,35.199016],[128.995732,35.197955],[128.995017,35.196945],[128.994659,35.196434],[128.994587,35.196327],[128.993718,35.194791],[128.992942,35.193293],[128.99271,35.19299],[128.992463,35.192754],[128.992007,35.192507],[128.989964,35.191772],[128.989811,35.191691],[128.989664,35.191585],[128.989544,35.191444],[128.98943,35.191267],[128.989194,35.190844],[128.988716,35.189867],[128.987891,35.188153],[128.987693,35.187752],[128.987433,35.187224],[128.987094,35.186508],[128.987003,35.186262],[128.986883,35.185786],[128.986556,35.184387],[128.986312,35.183394],[128.986119,35.182596],[128.985852,35.181519],[128.985798,35.181234],[128.985463,35.179883],[128.985144,35.17859],[128.984947,35.17776],[128.984682,35.176716],[128.982922,35.171115],[128.982739,35.170544],[128.982528,35.16983],[128.98226,35.168949],[128.982173,35.168583],[128.982136,35.168331],[128.982116,35.168121],[128.98208,35.167857],[128.982098,35.167578],[128.982163,35.167249],[128.982286,35.166868],[128.98353,35.164436],[128.984666,35.162217],[128.984666,35.162217],[128.984791,35.162038],[128.984938,35.161846],[128.986585,35.16014],[128.987222,35.15949],[128.987621,35.159081],[128.989091,35.157542],[128.989268,35.157355],[128.990435,35.156127],[128.99088,35.155705],[128.99132,35.155386],[128.991585,35.155189],[128.992907,35.154285],[128.994312,35.153284],[128.99469,35.153014],[128.995988,35.15211],[128.996084,35.152052],[128.996214,35.151972],[128.996497,35.1518],[128.997773,35.151217],[128.998371,35.150955],[128.998977,35.150673],[128.999548,35.150484],[128.999956,35.150402],[129.000492,35.150363],[129.000987,35.15035],[129.0014,35.150347],[129.002238,35.15041],[129.00315,35.150504],[129.003919,35.150573],[129.004305,35.150607],[129.005297,35.150699],[129.0059,35.150751],[129.007901,35.15093],[129.009613,35.151063],[129.010757,35.151164],[129.012426,35.151285],[129.012822,35.151315],[129.014247,35.151439],[129.014935,35.151493],[129.015489,35.151561],[129.016002,35.151661],[129.016537,35.151806],[129.017001,35.151987],[129.017431,35.152217],[129.017809,35.152414],[129.018158,35.152623],[129.018465,35.152788],[129.018702,35.152885],[129.018972,35.152971],[129.019405,35.153086],[129.019795,35.153175],[129.020137,35.15324],[129.020475,35.153267],[129.02304,35.153245],[129.024327,35.153209],[129.025516,35.153193],[129.026325,35.1532],[129.02736,35.15323],[129.028141,35.153316],[129.029527,35.153531],[129.030331,35.153678],[129.03126,35.153821],[129.032139,35.15398],[129.033476,35.154229],[129.035411,35.15457],[129.036823,35.154804],[129.037629,35.15493],[129.038233,35.155012],[129.038735,35.155095],[129.039502,35.155224],[129.040338,35.155365],[129.041417,35.155575],[129.042687,35.155828],[129.04531,35.156295],[129.045931,35.156405],[129.046599,35.156541],[129.047925,35.156824],[129.04916,35.157127],[129.05012,35.157349],[129.050506,35.157439],[129.05095,35.157538],[129.051119,35.157567],[129.051369,35.157587],[129.052377,35.157603],[129.053138,35.157606],[129.053652,35.157605],[129.054768,35.1576],[129.055949,35.157613],[129.058247,35.157699],[129.059103,35.157708],[129.059164,35.157709],[129.059882,35.157717],[129.062377,35.157752],[129.063848,35.157758]]}},{"type":"Feature","properties":{"line":"busan-2","ref":"2","name":"부산 도시철도 2호선","color":"#3CB44A"},"geometry":{"type":"LineString","coordinates":[[129.017487,35.289696],[129.01732,35.288975],[129.017192,35.288397],[129.017143,35.288173],[129.017107,35.287903],[129.017087,35.287664],[129.017085,35.287552],[129.017096,35.287362],[129.017138,35.287056],[129.017223,35.286484],[129.017277,35.285971],[129.017368,35.284032],[129.017381,35.283347],[129.01739,35.282879],[129.017452,35.282392],[129.017486,35.281764],[129.017499,35.281072],[129.017502,35.281004],[129.017535,35.280334],[129.017556,35.279726],[129.017626,35.279239],[129.017648,35.278587],[129.017693,35.277763],[129.017695,35.277386],[129.017683,35.27721],[129.017666,35.276984],[129.017657,35.276908],[129.017561,35.27649],[129.017304,35.275512],[129.01728,35.275396],[129.01726,35.275245],[129.017256,35.275077],[129.017274,35.274911],[129.017295,35.274778],[129.017333,35.274604],[129.017383,35.274453],[129.017485,35.274176],[129.017729,35.273421],[129.017989,35.272639],[129.01808,35.272348],[129.018169,35.272003],[129.018194,35.271825],[129.018218,35.271671],[129.018253,35.271361],[129.018272,35.271055],[129.018271,35.270904],[129.018263,35.270728],[129.018232,35.27044],[129.01817,35.270103],[129.018093,35.269807],[129.018002,35.269509],[129.017869,35.269201],[129.017645,35.268752],[129.017521,35.268514],[129.017383,35.268248],[129.017347,35.268182],[129.016519,35.26666],[129.01649,35.266624],[129.016403,35.266475],[129.015487,35.264806],[129.015235,35.264377]]}},{"type":"Feature","properties":{"line":"busan-2","ref":"2","name":"부산 도시철도 2호선","color":"#3CB44A"},"geometry":{"type":"LineString","coordinates":[[129.017487,35.289696],[129.017616,35.290254],[129.017665,35.290565],[129.017691,35.290741],[129.01771,35.290961],[129.017728,35.291222],[129.017741,35.291496],[129.017733,35.291733],[129.017728,35.291896],[129.017712,35.29202],[129.017691,35.292162],[129.017658,35.292344],[129.017632,35.292459],[129.017603,35.292558],[129.017471,35.293009],[129.017345,35.293315],[129.017242,35.293528],[129.016971,35.294011],[129.016772,35.294286],[129.016583,35.294515],[129.016413,35.294707],[129.016208,35.294907],[129.016052,35.295056],[129.015856,35.295232],[129.015603,35.295431],[129.015325,35.295627],[129.01505,35.295804],[129.014627,35.29604],[129.014186,35.296236],[129.013847,35.296374],[129.012718,35.296829],[129.011419,35.297346],[129.010723,35.297628],[129.010095,35.297899],[129.009844,35.298027],[129.009687,35.298122],[129.009498,35.298256],[129.00932,35.298399],[129.009167,35.298536],[129.009057,35.298646],[129.008942,35.298773],[129.008813,35.298957],[129.008719,35.299107],[129.008646,35.29925],[129.008589,35.299369],[129.008525,35.299528],[129.008509,35.299563],[129.008484,35.299657],[129.008455,35.299766],[129.00843,35.299875],[129.008412,35.3],[129.0084,35.300152],[129.008403,35.300485],[129.008452,35.30073],[129.008525,35.301001],[129.008727,35.301513],[129.008957,35.30204],[129.009131,35.302465],[129.009202,35.302685],[129.009265,35.302901],[129.009337,35.303192],[129.009391,35.303593],[129.00941,35.303857],[129.009409,35.30549],[129.00941,35.305695],[129.009451,35.306021],[129.009527,35.306411],[129.009586,35.306634],[129.009642,35.306812],[129.009704,35.306977],[129.009919,35.307487],[129.009933,35.307512],[129.010636,35.309121],[129.010694,35.309277],[129.010823,35.309596],[129.011151,35.310354],[129.01157,35.311336],[129.011764,35.311767],[129.011826,35.311899],[129.012112,35.31254],[129.012699,35.313908],[129.012905,35.314376],[129.013336,35.31538],[129.013378,35.315482],[129.013546,35.315806],[129.013656,35.316034],[129.014036,35.316866],[129.014077,35.316957],[129.014463,35.317598],[129.014573,35.31778],[129.014645,35.317884],[129.014955,35.318256],[129.01514,35.318454],[129.015455,35.318764],[129.015804,35.3191],[129.016035,35.319277],[129.016877,35.319925],[129.017203,35.320179],[129.017604,35.320529],[129.017795,35.320727],[129.017998,35.320944],[129.018152,35.321128],[129.018323,35.321362],[129.01852,35.321663],[129.01868,35.321955],[129.018767,35.322133],[129.018916,35.322492],[129.019074,35.323012],[129.019139,35.323323],[129.019153,35.323425],[129.019175,35.32361],[129.019297,35.324666]]}}]}