{
  "type": "FeatureCollection",
  "features": [
    {
      "type": "Feature",
      "properties": { "name": "서울 지하철 4호선", "ref": "4" },
      "geometry": {
        "type": "LineString",
        "coordinates": [
          [127.0792, 37.6703],
          [127.0615, 37.6551],
          [127.0473, 37.6485],
          [127.0347, 37.6369],
          [127.0257, 37.6200],
          [127.0162, 37.6031],
          [127.0133, 37.5890],
          [127.0060, 37.5826],
          [127.0019, 37.5710],
          [126.9996, 37.5610],
          [126.9945, 37.5520],
          [126.9865, 37.5440],
          [126.9784, 37.5410],
          [126.9720, 37.5340],
          [126.9728, 37.5260],
          [126.9810, 37.5130],
          [126.9815, 37.5040],
          [126.9816, 37.4765],
          [126.9880, 37.4630],
          [126.9890, 37.4510],
          [126.9950, 37.4350],
          [127.0070, 37.4260],
          [127.0340, 37.4150],
          [127.0550, 37.3940],
          [127.0720, 37.3780],
          [127.1000, 37.3510],
          [127.1280, 37.3180],
          [127.1480, 37.2750]
        ]
      }
    }
  ]
}
