{"type":"FeatureCollection","features":[{"type":"Feature","properties":{"line":"daegu-3","ref":"3","name":"대구 도시철도 3호선","color":"#FFB100"},"geometry":{"type":"LineString","coordinates":[[128.559856,35.958513],[128.559702,35.957126],[128.55962,35.956242],[128.559556,35.955627],[128.559337,35.953456],[128.559279,35.952894],[128.559186,35.952031],[128.559161,35.951774],[128.559137,35.951571],[128.559051,35.950539],[128.558987,35.94988],[128.558881,35.948772],[128.558806,35.948035],[128.558749,35.947457],[128.558676,35.946869],[128.558581,35.946055],[128.558508,35.945445],[128.55842,35.944739],[128.558301,35.944128],[128.558241,35.943807],[128.558063,35.942861],[128.55795,35.942264],[128.557878,35.94181],[128.557832,35.941213],[128.55777,35.940536],[128.557726,35.939956],[128.557616,35.939369],[128.557521,35.939142],[128.557175,35.938565],[128.556629,35.93775],[128.556132,35.937019],[128.556048,35.936863],[128.555996,35.93674],[128.555914,35.936441],[128.555824,35.935729],[128.5558,35.935267],[128.555733,35.934847],[128.555647,35.934427],[128.555488,35.933785],[128.555257,35.933064],[128.55509,35.932661],[128.554675,35.931831],[128.554521,35.931543],[128.554412,35.931355],[128.554111,35.930822],[128.553834,35.930401],[128.553246,35.929613],[128.552584,35.928762],[128.55155,35.927405],[128.550424,35.925961],[128.550275,35.925777],[128.549826,35.925091],[128.549328,35.924282],[128.54904,35.923726],[128.548666,35.922992],[128.548155,35.921985],[128.547824,35.921349],[128.547694,35.921067],[128.547592,35.920766],[128.547512,35.920461],[128.547359,35.919753],[128.54714,35.918802],[128.547036,35.91845],[128.546857,35.918071],[128.546656,35.917766],[128.546339,35.9174],[128.545686,35.916799],[128.544696,35.91584],[128.543342,35.914561],[128.543133,35.914327],[128.543006,35.91409],[128.542962,35.913877],[128.542962,35.913668],[128.543037,35.913402],[128.543359,35.912723],[128.543646,35.912109],[128.543962,35.911445],[128.544153,35.911062],[128.544492,35.910599],[128.544851,35.910281],[128.545614,35.909804],[128.546324,35.909395],[128.546634,35.909168],[128.546823,35.908964],[128.5469,35.908755],[128.546942,35.908604],[128.546963,35.908452],[128.546962,35.908295],[128.546865,35.907805],[128.54671,35.907051],[128.546547,35.906467],[128.546394,35.906046],[128.546179,35.905588],[128.545738,35.90454],[128.545648,35.904339],[128.545372,35.903651],[128.54519,35.903232],[128.544986,35.902749],[128.544786,35.902189],[128.544722,35.901895],[128.544673,35.90155],[128.544649,35.901226],[128.544687,35.900719],[128.544765,35.900317],[128.544886,35.899958],[128.545028,35.89963],[128.545201,35.899323],[128.545487,35.898919],[128.545897,35.898483],[128.546678,35.897835]]}},{"type":"Feature","properties":{"line":"daegu-3","ref":"3","name":"대구 도시철도 3호선","color":"#FFB100"},"geometry":{"type":"LineString","coordinates":[[128.546678,35.897835],[128.547514,35.89718],[128.548115,35.896694],[128.549272,35.895761],[128.551306,35.894155],[128.551624,35.893915],[128.55212,35.893526],[128.552436,35.893245],[128.553548,35.89203],[128.554013,35.891517],[128.55438,35.891154],[128.554718,35.890938],[128.555118,35.890771],[128.555442,35.890684],[128.556922,35.89045],[128.561037,35.889842],[128.561298,35.889803],[128.563912,35.889423],[128.565918,35.889151],[128.567574,35.888908],[128.567867,35.888865],[128.569733,35.888585],[128.571379,35.888321],[128.572696,35.888116],[128.574296,35.88787],[128.575311,35.887709],[128.575801,35.887597],[128.57635,35.88742],[128.578026,35.886758],[128.580906,35.885503],[128.5812,35.885351],[128.581318,35.885242],[128.581454,35.885089],[128.581588,35.88485],[128.581607,35.884679],[128.581597,35.884471],[128.581473,35.884009],[128.581398,35.883802],[128.581322,35.883552],[128.581063,35.882725],[128.58074,35.881667],[128.580584,35.881183],[128.580341,35.880507],[128.580216,35.880106],[128.580197,35.879958],[128.580192,35.879829],[128.580208,35.879718],[128.580253,35.879587],[128.580323,35.879413],[128.580921,35.87853],[128.581112,35.878252],[128.581259,35.878039],[128.581728,35.877315],[128.581857,35.877066],[128.581956,35.876781],[128.582021,35.876388],[128.582039,35.876167],[128.582044,35.87589],[128.582052,35.875696],[128.582076,35.87503],[128.58213,35.873354],[128.582144,35.872659],[128.58218,35.871521],[128.582198,35.870506],[128.582221,35.869703],[128.582221,35.869462],[128.582236,35.869025],[128.582249,35.867981],[128.58228,35.86647],[128.582307,35.865316],[128.582325,35.864203],[128.582334,35.863878],[128.582366,35.863191],[128.582446,35.862033],[128.582512,35.860974],[128.582615,35.859174],[128.582691,35.857963],[128.582744,35.857335],[128.582763,35.857186],[128.582799,35.85709],[128.582828,35.857037],[128.582895,35.856952],[128.582983,35.856867],[128.583099,35.856792],[128.583379,35.856674],[128.583558,35.856593],[128.583785,35.856502],[128.583997,35.856431],[128.584199,35.856411],[128.58493,35.856468],[128.586835,35.856638],[128.587661,35.856711],[128.588896,35.856821],[128.589461,35.85687],[128.589707,35.856895],[128.590143,35.856931],[128.590657,35.856952],[128.591102,35.856925],[128.591566,35.856874],[128.593624,35.856646],[128.596146,35.856375],[128.596552,35.856318],[128.596768,35.856269],[128.597051,35.856186],[128.59732,35.856069],[128.598083,35.855663],[128.598332,35.855555],[128.598471,35.855504],[128.598713,35.855456],[128.59893,35.855429],[128.599246,35.855406],[128.599592,35.855388],[128.600405,35.85534],[128.601286,35.855284],[128.60258,35.855206],[128.60436,35.855093],[128.606335,35.854966],[128.608543,35.854837],[128.609466,35.854764],[128.610712,35.85464],[128.611354,35.854597],[128.614653,35.854391],[128.615996,35.854298],[128.617078,35.854232],[128.620126,35.854042],[128.621574,35.853949],[128.622145,35.853911],[128.622863,35.853858],[128.624326,35.853762],[128.624537,35.853741],[128.624701,35.853721],[128.624816,35.853692],[128.624915,35.853659],[128.624982,35.853611],[128.625053,35.853534],[128.625109,35.853437],[128.625162,35.853273],[128.625169,35.853218],[128.625183,35.853053],[128.625181,35.852844],[128.625169,35.852579],[128.625152,35.852365],[128.625129,35.852172],[128.624998,35.850853],[128.624818,35.848864],[128.624733,35.847949],[128.624598,35.84675],[128.624445,35.845156],[128.624284,35.843354],[128.62415,35.841862],[128.624037,35.840458],[128.623901,35.839037],[128.623748,35.837173],[128.623532,35.835226],[128.623433,35.833963],[128.623405,35.833503],[128.623303,35.832307],[128.623188,35.831413],[128.623117,35.830726],[128.623179,35.8304],[128.623248,35.830116],[128.623414,35.829697],[128.62355,35.829454],[128.623738,35.829183],[128.624068,35.828845],[128.624398,35.828571],[128.624735,35.828366],[128.625951,35.827605],[128.626149,35.827495],[128.626244,35.827444],[128.626496,35.827349],[128.626783,35.827238],[128.631079,35.825614],[128.631468,35.82544],[128.631819,35.825252],[128.632245,35.825014],[128.635886,35.823657],[128.636313,35.823408],[128.637192,35.82282],[128.640013,35.820951],[128.640682,35.820539],[128.642243,35.819583],[128.64362,35.818736],[128.644433,35.818197],[128.644671,35.818106],[128.644824,35.818085],[128.645044,35.818074],[128.64525,35.818094],[128.646126,35.818216],[128.646436,35.818265],[128.64708,35.81835]]}}]}