{
  "type": "FeatureCollection",
  "features": [
    {
      "type": "Feature",
      "properties": { "name": "공항철도 AREX", "ref": "arex" },
      "geometry": {
        "type": "LineString",
        "coordinates": [
          [126.4524, 37.4475],
          [126.4930, 37.4600],
          [126.5400, 37.4900],
          [126.6160, 37.5450],
          [126.6730, 37.5610],
          [126.7360, 37.5680],
          [126.8010, 37.5650],
          [126.8380, 37.5620],
          [126.8890, 37.5580],
          [126.9250, 37.5570],
          [126.9520, 37.5440],
          [126.9710, 37.5540]
        ]
      }
    }
  ]
}
