{"type":"FeatureCollection","features":[{"type":"Feature","properties":{"line":"daegu-2","ref":"2","name":"대구 도시철도 2호선","color":"#00AA80"},"geometry":{"type":"LineString","coordinates":[[128.437164,35.864304],[128.437494,35.864631]]}},{"type":"Feature","properties":{"line":"daegu-2","ref":"2","name":"대구 도시철도 2호선","color":"#00AA80"},"geometry":{"type":"LineString","coordinates":[[128.437494,35.864631],[128.438222,35.865344],[128.439583,35.866628]]}},{"type":"Feature","properties":{"line":"daegu-2","ref":"2","name":"대구 도시철도 2호선","color":"#00AA80"},"geometry":{"type":"LineString","coordinates":[[128.439583,35.866628],[128.440636,35.867622]]}},{"type":"Feature","properties":{"line":"daegu-2","ref":"2","name":"대구 도시철도 2호선","color":"#00AA80"},"geometry":{"type":"LineString","coordinates":[[128.440636,35.867622],[128.444465,35.871315],[128.444809,35.871647],[128.445066,35.871904],[128.445345,35.872159],[128.44612,35.872882]]}},{"type":"Feature","properties":{"line":"daegu-2","ref":"2","name":"대구 도시철도 2호선","color":"#00AA80"},"geometry":{"type":"LineString","coordinates":[[128.44612,35.872882],[128.446403,35.873204],[128.446666,35.87343],[128.447041,35.873733],[128.447406,35.87389],[128.447921,35.874011],[128.448393,35.874064],[128.448779,35.874064],[128.449315,35.873959],[128.449745,35.873838],[128.450174,35.873594],[128.450495,35.873368],[128.450839,35.87302],[128.452706,35.871039],[128.455358,35.868217],[128.456817,35.866591],[128.457845,35.865387],[128.457902,35.86532],[128.458203,35.865038],[128.459616,35.86363],[128.461836,35.861118],[128.462514,35.860383],[128.4628,35.860066],[128.463085,35.859749],[128.463957,35.858813],[128.464829,35.857968],[128.46565,35.857272],[128.467189,35.85611],[128.468744,35.854992],[128.469683,35.854289],[128.469899,35.854134],[128.470127,35.854007],[128.471829,35.853564],[128.472707,35.853363],[128.473216,35.85325],[128.473593,35.853207],[128.478096,35.853074],[128.479547,35.852946],[128.481012,35.852771],[128.482396,35.852581],[128.483079,35.852486],[128.485647,35.85239],[128.485863,35.85235],[128.487118,35.852091],[128.488325,35.851875],[128.491928,35.851482],[128.493203,35.851366],[128.493863,35.851369],[128.494589,35.851402],[128.502299,35.851985],[128.503636,35.852021],[128.504818,35.851933],[128.507024,35.851685],[128.511691,35.850991],[128.515793,35.850507],[128.516538,35.850426],[128.517103,35.850427],[128.518809,35.850482],[128.519346,35.850441],[128.523458,35.849077],[128.524429,35.848757],[128.524976,35.848644],[128.525566,35.848578],[128.526487,35.848629],[128.528889,35.848997],[128.530796,35.849291],[128.53231,35.849495],[128.533623,35.849675],[128.536935,35.849949],[128.537472,35.850111],[128.538236,35.850417],[128.548288,35.854296],[128.553941,35.85643],[128.554238,35.856542],[128.555779,35.857151],[128.562207,35.859285],[128.56476,35.860075],[128.568632,35.861125],[128.572107,35.86202],[128.573662,35.862386],[128.578857,35.863702],[128.582264,35.864753],[128.582548,35.864852],[128.583227,35.865057],[128.587057,35.866235],[128.587395,35.866316],[128.587712,35.86636],[128.588083,35.866339],[128.593004,35.865533],[128.593756,35.865396],[128.59683,35.864812],[128.597116,35.864761],[128.597647,35.864653],[128.597943,35.864592],[128.598223,35.864502],[128.598499,35.864344],[128.599022,35.863934],[128.599366,35.863802],[128.599701,35.863706],[128.603014,35.863036],[128.607333,35.862163],[128.60781,35.86205],[128.608057,35.861921],[128.609579,35.860923],[128.610619,35.860392],[128.611645,35.859986],[128.612464,35.859812],[128.61411,35.85971],[128.616991,35.859588],[128.624678,35.859138],[128.626498,35.858977],[128.629966,35.858775],[128.631039,35.858762],[128.634148,35.85876],[128.635794,35.858776],[128.642249,35.858804],[128.645112,35.85883],[128.646065,35.858828],[128.646425,35.858735],[128.651311,35.85613],[128.652731,35.85535],[128.65419,35.854638],[128.657799,35.853335],[128.658668,35.853135],[128.660204,35.852616],[128.661348,35.852257],[128.66238,35.851717],[128.664161,35.850676],[128.667518,35.848753],[128.669681,35.847581],[128.670502,35.847113],[128.671399,35.846652],[128.671961,35.846358],[128.678613,35.843065],[128.679155,35.842839],[128.67996,35.842594],[128.684154,35.841469],[128.684825,35.84136],[128.685254,35.841338],[128.685764,35.841382],[128.686241,35.841451],[128.689958,35.842556],[128.69064,35.842704],[128.691278,35.842782],[128.692662,35.84286],[128.69341,35.842857],[128.696036,35.842838],[128.696734,35.842743],[128.69845,35.842334],[128.704955,35.840765],[128.706795,35.840325],[128.710928,35.838464],[128.712575,35.837668],[128.713422,35.837429],[128.716012,35.836789],[128.722483,35.83525],[128.725092,35.834676],[128.726848,35.83429],[128.727792,35.834108],[128.728291,35.834026],[128.728652,35.834015],[128.73127,35.834007],[128.735143,35.834028],[128.739,35.834054],[128.741026,35.834051],[128.745475,35.834107],[128.747197,35.834098],[128.747837,35.834177],[128.749348,35.834785],[128.75233,35.836011],[128.753117,35.836321],[128.753576,35.836566]]}}]}