{"type":"FeatureCollection","features":[{"type":"Feature","properties":{"line":"busan-gimhae","ref":"BGL","name":"부산김해경전철: 사상 → 가야대","color":"#8FC31F"},"geometry":{"type":"LineString","coordinates":[[128.988176,35.16254],[128.987753,35.162503],[128.987372,35.162464],[128.986363,35.162346],[128.985936,35.162297],[128.985614,35.16226],[128.985165,35.162249],[128.98475,35.162266],[128.984324,35.162314],[128.983801,35.16239],[128.977725,35.163278],[128.976429,35.163462],[128.974098,35.163809],[128.972327,35.164078],[128.968761,35.164633],[128.965852,35.165076],[128.964464,35.165274],[128.964078,35.165314],[128.963575,35.165351],[128.963168,35.165362],[128.962716,35.165359],[128.96233,35.165342],[128.961794,35.165285],[128.960961,35.165135],[128.960603,35.165056],[128.960321,35.164987],[128.960059,35.164907],[128.959702,35.164785],[128.9592,35.164601],[128.958711,35.16442],[128.958153,35.164182],[128.957776,35.164052],[128.957592,35.164004],[128.957417,35.163988],[128.957074,35.164035],[128.956653,35.164152],[128.956477,35.16422],[128.956318,35.164319],[128.955837,35.164833],[128.954956,35.166397],[128.954914,35.166473],[128.953702,35.16865],[128.953281,35.169392],[128.953085,35.169747],[128.952821,35.170107],[128.952518,35.170353],[128.952293,35.170487],[128.952109,35.170555],[128.951927,35.170611],[128.951711,35.170656],[128.950839,35.170782],[128.950624,35.170815],[128.950307,35.170896],[128.949275,35.171276],[128.949103,35.171361],[128.948959,35.17147],[128.948836,35.171606],[128.948756,35.171702]]}},{"type":"Feature","properties":{"line":"busan-gimhae","ref":"BGL","name":"부산김해경전철: 사상 → 가야대","color":"#8FC31F"},"geometry":{"type":"LineString","coordinates":[[128.948756,35.171702],[128.948561,35.171934],[128.948522,35.17198],[128.948389,35.172139]]}},{"type":"Feature","properties":{"line":"busan-gimhae","ref":"BGL","name":"부산김해경전철: 사상 → 가야대","color":"#8FC31F"},"geometry":{"type":"LineString","coordinates":[[128.948389,35.172139],[128.948289,35.172257],[128.948201,35.172391],[128.948137,35.172514],[128.948089,35.172627],[128.948058,35.172766],[128.947829,35.174644],[128.947807,35.174847],[128.947814,35.17499],[128.947847,35.175138],[128.94788,35.175225],[128.947931,35.175334],[128.947991,35.175426],[128.948073,35.175517],[128.948393,35.175884],[128.952785,35.180705],[128.953013,35.180953],[128.95326,35.181221],[128.953464,35.181411],[128.953671,35.181612],[128.954137,35.181968],[128.958802,35.185375],[128.959046,35.185563],[128.959219,35.185749],[128.959417,35.185987],[128.959563,35.18629],[128.959721,35.186761],[128.960321,35.188868],[128.960639,35.189717],[128.961282,35.191099],[128.961905,35.192345],[128.962302,35.19316],[128.962626,35.193759],[128.963387,35.1949],[128.963441,35.195019],[128.963512,35.195249],[128.963545,35.195488],[128.963527,35.196228],[128.963522,35.196755],[128.963464,35.199876],[128.963401,35.203538],[128.963261,35.211456],[128.963248,35.211787],[128.963245,35.211959],[128.96322,35.21213],[128.963171,35.212298],[128.9631,35.21246],[128.963007,35.212586],[128.962895,35.212688],[128.962668,35.212803],[128.962497,35.212866],[128.962219,35.212918],[128.960517,35.213068],[128.955143,35.213587],[128.953941,35.213713],[128.952927,35.213822],[128.951406,35.213969],[128.950618,35.214043],[128.949626,35.214141],[128.949054,35.214207],[128.94878,35.214256],[128.948474,35.214322],[128.948055,35.214431],[128.947458,35.214627],[128.945234,35.215386],[128.941499,35.216637],[128.941031,35.216793],[128.938635,35.217596],[128.938297,35.217713],[128.93749,35.217974],[128.935649,35.218598],[128.932965,35.219541],[128.932673,35.219658],[128.930845,35.220467],[128.929113,35.221319],[128.928499,35.221676],[128.928228,35.221874],[128.927822,35.22224],[128.927335,35.222775],[128.927128,35.223064],[128.925874,35.224999],[128.925435,35.225648],[128.92488,35.226368],[128.923713,35.227636],[128.92321,35.228104],[128.922856,35.228345],[128.922531,35.228531],[128.922239,35.228673],[128.921872,35.228827],[128.921336,35.228985],[128.920955,35.229076],[128.920597,35.229135],[128.920205,35.229149],[128.919728,35.229135],[128.917538,35.229062],[128.915582,35.228987],[128.910659,35.228804],[128.908023,35.228637],[128.901736,35.228102],[128.896791,35.22768],[128.894067,35.227455],[128.890319,35.227099],[128.883801,35.226473],[128.877038,35.225825],[128.876584,35.225792],[128.87639,35.225795],[128.876217,35.225812],[128.875982,35.225849],[128.875607,35.225931],[128.87525,35.226033],[128.87494,35.226153],[128.874668,35.226322],[128.874535,35.226418],[128.874464,35.22652],[128.874404,35.226629],[128.874369,35.226706],[128.874328,35.226837],[128.874255,35.22735],[128.874163,35.227871],[128.874046,35.228311],[128.873952,35.228579],[128.873811,35.228883],[128.873497,35.229413],[128.872873,35.230421],[128.872771,35.230593],[128.872641,35.230878],[128.872537,35.231192],[128.872409,35.231633],[128.87231,35.231976],[128.872192,35.232437],[128.872066,35.232925],[128.871889,35.233607],[128.871774,35.234112],[128.871749,35.234482],[128.871756,35.236341],[128.871774,35.237003],[128.871897,35.238113],[128.871937,35.238628],[128.87191,35.23902],[128.871879,35.239541],[128.87184,35.24013],[128.871752,35.241148],[128.871523,35.243333],[128.87144,35.244199],[128.871396,35.244705],[128.871321,35.245127],[128.871119,35.245724],[128.87096,35.246062],[128.870757,35.246412],[128.8705,35.246751],[128.869841,35.247497],[128.869455,35.24797],[128.869241,35.248353],[128.869133,35.2487],[128.869145,35.249049],[128.869179,35.249275],[128.869223,35.249657],[128.869338,35.250217],[128.869576,35.25123],[128.869643,35.251493],[128.869742,35.251827],[128.869876,35.25227],[128.869956,35.252645],[128.870005,35.252866],[128.87006,35.253253],[128.870089,35.253784],[128.87012,35.254359],[128.870094,35.254584],[128.870043,35.254837],[128.869952,35.255104],[128.869571,35.256101],[128.869402,35.256342],[128.869281,35.256483],[128.869093,35.256665],[128.868766,35.25687],[128.868118,35.2573],[128.867977,35.257439],[128.867826,35.257632],[128.867758,35.257755],[128.867663,35.25802],[128.867469,35.258676],[128.86719,35.259556],[128.867071,35.259961],[128.86704,35.260087],[128.867006,35.260221],[128.866992,35.260348],[128.866988,35.260553],[128.866993,35.260619],[128.867018,35.26073],[128.867046,35.260941],[128.867178,35.261728],[128.867192,35.261872],[128.867204,35.262052],[128.867206,35.262203],[128.867197,35.262381],[128.86717,35.262557],[128.867135,35.262729],[128.86708,35.262938],[128.866859,35.263596],[128.866768,35.263839],[128.866699,35.26402],[128.866597,35.264232],[128.866502,35.264382],[128.866353,35.264608],[128.866242,35.264734],[128.866084,35.264889],[128.865353,35.265546],[128.865229,35.26565],[128.865143,35.265779],[128.865069,35.265929],[128.865032,35.266086],[128.865015,35.266256],[128.864975,35.266832],[128.864916,35.267854],[128.864905,35.268074],[128.864814,35.269585],[128.864789,35.269865],[128.864746,35.270139],[128.864669,35.27046],[128.864577,35.270957],[128.864523,35.271266],[128.864453,35.271724],[128.864364,35.27217],[128.864332,35.272329],[128.86429,35.272444],[128.864214,35.272575],[128.864123,35.272694],[128.863992,35.272865]]}},{"type":"Feature","properties":{"line":"busan-gimhae","ref":"BGL","name":"부산김해경전철: 가야대 → 사상","color":"#8FC31F"},"geometry":{"type":"LineString","coordinates":[[128.86388,35.272857],[128.864127,35.272618],[128.86421,35.272514],[128.864285,35.272327],[128.864326,35.272167],[128.864398,35.271732],[128.864451,35.271313],[128.864509,35.270953],[128.864687,35.270139],[128.864725,35.269878],[128.864755,35.269585],[128.864813,35.26856],[128.864879,35.267388],[128.864919,35.266829],[128.864952,35.266467],[128.864959,35.2663],[128.864977,35.266105],[128.86502,35.265921],[128.865096,35.265769],[128.865186,35.265636],[128.865323,35.265521],[128.866092,35.26482],[128.866268,35.264633],[128.866398,35.264464],[128.866523,35.264278],[128.866599,35.264137],[128.86667,35.263979],[128.866747,35.263791],[128.866819,35.263582],[128.867044,35.262923],[128.867101,35.262664],[128.867133,35.262511],[128.867156,35.262324],[128.867165,35.262146],[128.867159,35.261975],[128.867137,35.261732],[128.867,35.260917],[128.866975,35.260721],[128.866947,35.260541],[128.866946,35.260374],[128.866961,35.260235],[128.866992,35.260112],[128.867027,35.259968],[128.867134,35.259555],[128.867433,35.258663],[128.867623,35.258005],[128.867719,35.257715],[128.867798,35.257588],[128.867914,35.257452],[128.868041,35.257303],[128.86871,35.256855],[128.869039,35.256634],[128.869209,35.256475],[128.869338,35.256325],[128.869511,35.256097],[128.86989,35.255132],[128.869985,35.254868],[128.87004,35.2546],[128.870074,35.254376],[128.870055,35.253789],[128.870021,35.253246],[128.869951,35.252862],[128.869906,35.252652],[128.869817,35.252279],[128.869692,35.251835],[128.869606,35.2515],[128.869538,35.251235],[128.8693,35.250222],[128.86919,35.249661],[128.86909,35.249057],[128.869095,35.248696],[128.869205,35.248342],[128.869423,35.247954],[128.86981,35.247479],[128.870468,35.246734],[128.870722,35.246398],[128.870924,35.246051],[128.871083,35.245715],[128.871283,35.245122],[128.871358,35.244702],[128.871401,35.244196],[128.871485,35.24333],[128.871713,35.241145],[128.871802,35.240127],[128.871841,35.239538],[128.871872,35.239019],[128.871899,35.238628],[128.871859,35.238115],[128.871735,35.237005],[128.871717,35.236341],[128.87172,35.234479],[128.871743,35.234108],[128.871851,35.233598],[128.872028,35.232917],[128.872159,35.232424],[128.872282,35.231972],[128.872371,35.231627],[128.872504,35.231173],[128.872607,35.230869],[128.872733,35.230581],[128.872852,35.230387],[128.873463,35.229403],[128.873765,35.228882],[128.873919,35.22856],[128.874005,35.228308],[128.874117,35.22787],[128.874199,35.227344],[128.874288,35.226823],[128.874333,35.2267],[128.874377,35.226608],[128.874438,35.226509],[128.87451,35.226395],[128.874657,35.226289],[128.874921,35.226122],[128.875241,35.226001],[128.8756,35.2259],[128.875968,35.225818],[128.87621,35.225783],[128.876402,35.225766],[128.876582,35.225766],[128.877039,35.225799],[128.883832,35.226439],[128.890328,35.227064],[128.894088,35.227427],[128.896795,35.22764],[128.901742,35.228066],[128.908011,35.228601],[128.910666,35.228775],[128.915584,35.228954],[128.917542,35.22903],[128.91974,35.2291],[128.920186,35.229117],[128.920599,35.229111],[128.920875,35.229055],[128.921331,35.228954],[128.921852,35.228794],[128.922211,35.228651],[128.922497,35.228514],[128.922824,35.228321],[128.92319,35.228079],[128.923682,35.227617],[128.924159,35.227106],[128.92451,35.22672],[128.924847,35.226351],[128.925396,35.225633],[128.925849,35.224968],[128.927106,35.223038],[128.927306,35.222753],[128.927789,35.22222],[128.928208,35.221845],[128.928467,35.221656],[128.929086,35.221295],[128.93083,35.220443],[128.932659,35.219634],[128.932952,35.219516],[128.935638,35.218575],[128.93732,35.217997],[128.938285,35.217683],[128.939119,35.217395],[128.941013,35.216771],[128.941489,35.216609],[128.94523,35.215356],[128.947446,35.214599],[128.948041,35.214403],[128.948467,35.214287],[128.948771,35.214222],[128.949047,35.214171],[128.949618,35.214104],[128.950636,35.214015],[128.951407,35.213938],[128.952919,35.213793],[128.953932,35.213687],[128.955146,35.213556],[128.960512,35.213032],[128.962213,35.212875],[128.962487,35.212827],[128.962694,35.212745],[128.962839,35.212672],[128.96298,35.212556],[128.963067,35.212445],[128.963137,35.212286],[128.963185,35.212121],[128.96321,35.211954],[128.963213,35.211785],[128.963221,35.211456],[128.963357,35.203537],[128.96342,35.199875],[128.963479,35.196672],[128.963483,35.196227],[128.963501,35.19549],[128.963468,35.195256],[128.963399,35.195029],[128.963347,35.194915],[128.962587,35.193776],[128.962264,35.193195],[128.961866,35.192379],[128.961243,35.191131],[128.960599,35.189748],[128.96028,35.188897],[128.959671,35.186777],[128.959515,35.186309],[128.959371,35.186012],[128.959177,35.185777],[128.959006,35.185595],[128.958775,35.185401],[128.95412,35.181995],[128.953637,35.18162],[128.953418,35.181421],[128.953232,35.181239],[128.952982,35.180962],[128.952761,35.180721],[128.948348,35.175893],[128.947998,35.175505],[128.947923,35.175411],[128.947859,35.175295],[128.947805,35.175166],[128.947775,35.175045],[128.947759,35.174907],[128.947771,35.17476],[128.947789,35.174612],[128.948031,35.172722],[128.948073,35.172558],[128.948148,35.172414],[128.948258,35.172244],[128.948359,35.172122]]}},{"type":"Feature","properties":{"line":"busan-gimhae","ref":"BGL","name":"부산김해경전철: 가야대 → 사상","color":"#8FC31F"},"geometry":{"type":"LineString","coordinates":[[128.948359,35.172122],[128.948531,35.171918],[128.948727,35.171686]]}},{"type":"Feature","properties":{"line":"busan-gimhae","ref":"BGL","name":"부산김해경전철: 가야대 → 사상","color":"#8FC31F"},"geometry":{"type":"LineString","coordinates":[[128.948727,35.171686],[128.948802,35.171589],[128.948918,35.171458],[128.949006,35.171387],[128.949111,35.171319],[128.949288,35.171231],[128.950283,35.170868],[128.950557,35.170789],[128.950829,35.170751],[128.951695,35.17063],[128.951933,35.170572],[128.952099,35.170529],[128.952285,35.170448],[128.952491,35.170324],[128.952787,35.170084],[128.953046,35.169731],[128.953241,35.169377],[128.953662,35.168635],[128.954916,35.166382],[128.955797,35.164818],[128.956295,35.164289],[128.956456,35.164181],[128.956634,35.164119],[128.957063,35.164],[128.957415,35.163952],[128.957601,35.163969],[128.957792,35.164019],[128.958172,35.164149],[128.95873,35.164388],[128.959218,35.164569],[128.959719,35.164752],[128.960075,35.164874],[128.960335,35.164953],[128.960615,35.165021],[128.960971,35.1651],[128.961801,35.16525],[128.962334,35.165306],[128.962718,35.165323],[128.963167,35.165326],[128.963572,35.165315],[128.964074,35.165278],[128.964458,35.165239],[128.965844,35.165041],[128.968753,35.164598],[128.972319,35.164043],[128.97409,35.163774],[128.976421,35.163426],[128.977718,35.163243],[128.983695,35.162369],[128.984317,35.162278],[128.984746,35.16223],[128.985164,35.162213],[128.985617,35.162225],[128.985943,35.162261],[128.986473,35.162323],[128.987378,35.162428],[128.987758,35.162468],[128.98818,35.162504]]}}]}