{"type":"FeatureCollection","features":[{"type":"Feature","properties":{"line":"busan-3","ref":"3","name":"부산 도시철도 3호선","color":"#BB8C00"},"geometry":{"type":"LineString","coordinates":[[129.005288,35.210119],[129.005807,35.210263],[129.006288,35.21039],[129.008193,35.210861],[129.012766,35.212013],[129.016825,35.213005],[129.017345,35.213106],[129.017924,35.21318],[129.01853,35.213189],[129.020295,35.213255],[129.023938,35.213361],[129.024364,35.213358],[129.024909,35.213307],[129.025799,35.213277],[129.026797,35.213163],[129.027387,35.213053],[129.027984,35.212884],[129.028128,35.212843],[129.028667,35.212793],[129.029436,35.212803],[129.030413,35.212913],[129.03133,35.213049],[129.03258,35.213251],[129.033068,35.213281],[129.033524,35.213268],[129.03493,35.213194],[129.035959,35.21308],[129.036473,35.213023],[129.037251,35.212934],[129.038192,35.212863],[129.038695,35.212812],[129.040286,35.213042],[129.042464,35.213239],[129.043699,35.213151],[129.044426,35.213039],[129.046461,35.212687],[129.061703,35.210178],[129.063709,35.209665],[129.06593,35.209064],[129.0667,35.208858],[129.067618,35.208578],[129.067874,35.208524],[129.068306,35.208375],[129.068494,35.2083],[129.068743,35.208179],[129.068923,35.208056],[129.069031,35.207947],[129.069171,35.207776],[129.069231,35.20768],[129.069254,35.207622],[129.06927,35.207534],[129.069276,35.207457],[129.069269,35.207357],[129.069244,35.207277],[129.069197,35.207172],[129.068989,35.206864],[129.068757,35.206528],[129.06837,35.205901],[129.06722,35.204199],[129.066844,35.203649],[129.066205,35.202713],[129.065519,35.201728],[129.065112,35.201052],[129.064935,35.20075],[129.064876,35.200539],[129.064839,35.200316],[129.06486,35.200044],[129.064951,35.19961],[129.065119,35.199074],[129.065311,35.198462],[129.066066,35.196216],[129.066292,35.195542],[129.067437,35.191859],[129.067539,35.191448],[129.067592,35.191262],[129.067679,35.19112],[129.067811,35.19102],[129.068141,35.190974],[129.068563,35.190976],[129.068737,35.190963],[129.068866,35.190925],[129.069134,35.190842],[129.069394,35.190713],[129.070623,35.190157],[129.071307,35.18983],[129.072688,35.189157],[129.073109,35.188926],[129.073309,35.188837],[129.073515,35.188745],[129.07405,35.188527],[129.074285,35.188431],[129.074696,35.188272],[129.075208,35.188142],[129.076155,35.187923],[129.076202,35.187913],[129.076839,35.187765],[129.077348,35.187612],[129.078105,35.18734],[129.07968,35.18675],[129.080429,35.186465],[129.080464,35.186452],[129.080803,35.186327],[129.08107,35.186219],[129.08135,35.186073],[129.081554,35.185975],[129.081761,35.185834],[129.081892,35.185727],[129.082015,35.185603],[129.082212,35.185383],[129.082536,35.184639],[129.082614,35.18444],[129.083121,35.183147],[129.083265,35.182789],[129.083335,35.182566],[129.08336,35.182513],[129.083818,35.181496],[129.08404,35.180967],[129.084496,35.179864],[129.084519,35.179811],[129.084551,35.179735],[129.084923,35.178851],[129.085036,35.178602],[129.08528,35.178017],[129.085367,35.177824],[129.085525,35.177461],[129.085543,35.177419],[129.085885,35.176622],[129.085965,35.176437],[129.085979,35.176404],[129.086004,35.17634],[129.086227,35.175756],[129.086409,35.17537],[129.086666,35.174971],[129.086817,35.174804],[129.087004,35.174686],[129.087152,35.174621],[129.087273,35.174568],[129.087589,35.174493],[129.090674,35.17409],[129.092364,35.173891],[129.093318,35.173778],[129.094116,35.173671],[129.095544,35.17348],[129.095801,35.173446],[129.096647,35.173333],[129.098165,35.173176],[129.100351,35.173134],[129.100964,35.173119],[129.101195,35.173113],[129.101319,35.173124],[129.101971,35.173094],[129.10277,35.172919],[129.104476,35.172502],[129.107568,35.171716],[129.10791,35.17163],[129.108494,35.171487],[129.109057,35.17134],[129.109497,35.171209],[129.109792,35.17106],[129.11148,35.169887],[129.11405,35.168127],[129.114069,35.168114],[129.114246,35.167993],[129.114341,35.167928],[129.11436,35.167915],[129.114711,35.167674],[129.114905,35.16749],[129.114982,35.167392],[129.115036,35.167296],[129.115111,35.166929],[129.11509,35.166745],[129.114742,35.165362]]}},{"type":"Feature","properties":{"line":"busan-3","ref":"3","name":"부산 도시철도 3호선","color":"#BB8C00"},"geometry":{"type":"LineString","coordinates":[[129.005288,35.210119],[129.003962,35.209798],[129.003536,35.20973],[129.003072,35.209721],[129.002592,35.2098],[129.002066,35.209956],[129.001562,35.210068],[129.001148,35.210101],[129.000778,35.210072],[129.000316,35.209983],[128.99988,35.209847]]}},{"type":"Feature","properties":{"line":"busan-3","ref":"3","name":"부산 도시철도 3호선","color":"#BB8C00"},"geometry":{"type":"LineString","coordinates":[[128.99988,35.209847],[128.999654,35.209744],[128.999441,35.209629],[128.99925,35.209501],[128.999078,35.209361],[128.998897,35.209204],[128.998045,35.208372],[128.998004,35.208333]]}},{"type":"Feature","properties":{"line":"busan-3","ref":"3","name":"부산 도시철도 3호선","color":"#BB8C00"},"geometry":{"type":"LineString","coordinates":[[128.998004,35.208333],[128.996878,35.207241]]}},{"type":"Feature","properties":{"line":"busan-3","ref":"3","name":"부산 도시철도 3호선","color":"#BB8C00"},"geometry":{"type":"LineString","coordinates":[[128.996878,35.207241],[128.99633,35.20671],[128.995794,35.206191]]}},{"type":"Feature","properties":{"line":"busan-3","ref":"3","name":"부산 도시철도 3호선","color":"#BB8C00"},"geometry":{"type":"LineString","coordinates":[[128.995794,35.206191],[128.995741,35.20614],[128.995564,35.205996],[128.995358,35.205864],[128.99507,35.20572],[128.994869,35.205654],[128.994596,35.205592],[128.994314,35.205559],[128.994047,35.205555],[128.99383,35.205575],[128.993628,35.205612],[128.993422,35.205658],[128.99324,35.20572],[128.993033,35.205806],[128.992894,35.205874],[128.992708,35.205985],[128.992566,35.206076],[128.990343,35.207575],[128.986607,35.210108],[128.986209,35.21036],[128.985755,35.210575],[128.985241,35.21075],[128.984875,35.210856],[128.984458,35.210947],[128.984044,35.211011],[128.982651,35.211168],[128.98196,35.211237],[128.981031,35.21133],[128.979982,35.211444],[128.979345,35.211496],[128.97806,35.211634],[128.970123,35.212433],[128.969385,35.212509],[128.968503,35.212599],[128.967831,35.212663],[128.965677,35.212886],[128.964762,35.212978],[128.963795,35.213076],[128.963341,35.213121],[128.962739,35.213182],[128.962474,35.213217],[128.961862,35.21331],[128.961839,35.213311],[128.960798,35.213416],[128.960197,35.213476]]}},{"type":"Feature","properties":{"line":"busan-3","ref":"3","name":"부산 도시철도 3호선","color":"#BB8C00"},"geometry":{"type":"LineString","coordinates":[[128.960181,35.213378],[128.961084,35.213288],[128.961824,35.213214],[128.962463,35.213151],[128.96305,35.213093],[128.964483,35.21295],[128.968495,35.212551],[128.969372,35.212464],[128.970116,35.21239],[128.972875,35.212116],[128.975103,35.211895],[128.978052,35.211602],[128.981027,35.211306],[128.981946,35.211214],[128.982647,35.211145],[128.98328,35.21106],[128.984045,35.210974],[128.984453,35.210913],[128.984875,35.210822],[128.98527,35.210704],[128.98576,35.210519],[128.986356,35.210193],[128.987177,35.209638],[128.992544,35.206042],[128.992694,35.205941],[128.992878,35.205837],[128.993072,35.205745],[128.993229,35.20568],[128.993413,35.205618],[128.993586,35.205573],[128.993794,35.205531],[128.993959,35.205518],[128.994217,35.205507],[128.994401,35.205518],[128.994597,35.20554],[128.994833,35.205595],[128.995001,35.205648],[128.995183,35.205709],[128.995367,35.205798],[128.995531,35.2059],[128.995678,35.20602],[128.995837,35.206162]]}},{"type":"Feature","properties":{"line":"busan-3","ref":"3","name":"부산 도시철도 3호선","color":"#BB8C00"},"geometry":{"type":"LineString","coordinates":[[128.995837,35.206162],[128.996374,35.20668],[128.996923,35.20721]]}},{"type":"Feature","properties":{"line":"busan-3","ref":"3","name":"부산 도시철도 3호선","color":"#BB8C00"},"geometry":{"type":"LineString","coordinates":[[128.996923,35.20721],[128.998049,35.208307]]}},{"type":"Feature","properties":{"line":"busan-3","ref":"3","name":"부산 도시철도 3호선","color":"#BB8C00"},"geometry":{"type":"LineString","coordinates":[[128.998049,35.208307],[128.998087,35.208343],[128.998938,35.209175],[128.999118,35.20933],[128.999287,35.209468],[128.999474,35.209592],[128.999683,35.209705],[128.999907,35.209808]]}},{"type":"Feature","properties":{"line":"busan-3","ref":"3","name":"부산 도시철도 3호선","color":"#BB8C00"},"geometry":{"type":"LineString","coordinates":[[128.999907,35.209808],[129.000344,35.209944],[129.000752,35.210033],[129.001143,35.210063],[129.001551,35.210033],[129.002039,35.209927],[129.002586,35.209765],[129.003069,35.209686],[129.003544,35.209693],[129.003965,35.209761],[129.004493,35.209888],[129.004954,35.209998],[129.005276,35.210083]]}},{"type":"Feature","properties":{"line":"busan-3","ref":"3","name":"부산 도시철도 3호선","color":"#BB8C00"},"geometry":{"type":"LineString","coordinates":[[129.005276,35.210083],[129.005795,35.210227],[129.006276,35.210354],[129.008181,35.210825],[129.012754,35.211977],[129.016813,35.212969],[129.017333,35.21307],[129.017912,35.213144],[129.018518,35.213153],[129.020283,35.213219],[129.023926,35.213325],[129.024352,35.213322],[129.024897,35.213272],[129.025787,35.213241],[129.026785,35.213127],[129.027375,35.213017],[129.027972,35.212848],[129.028116,35.212807],[129.028655,35.212757],[129.029424,35.212768],[129.030401,35.212877],[129.031318,35.213013],[129.032568,35.213215],[129.033056,35.213245],[129.033512,35.213232],[129.034918,35.213158],[129.035947,35.213044],[129.036461,35.212988],[129.037239,35.212898],[129.03818,35.212827],[129.038683,35.212776],[129.040274,35.213006],[129.042452,35.213203],[129.043687,35.213115],[129.044414,35.213003],[129.046449,35.212651],[129.061691,35.210142],[129.063697,35.209629],[129.065918,35.209028],[129.066688,35.208822],[129.067606,35.208542],[129.067862,35.208488],[129.068294,35.208339],[129.068482,35.208264],[129.068731,35.208143],[129.068876,35.20804],[129.068984,35.207931],[129.069124,35.20776],[129.069184,35.207664],[129.069207,35.207605],[129.069218,35.20755],[129.069224,35.207474],[129.069217,35.207374],[129.069191,35.207294],[129.069144,35.207189],[129.068937,35.206881],[129.068705,35.206544],[129.068318,35.205918],[129.067168,35.204216],[129.066792,35.203665],[129.066153,35.20273],[129.065467,35.201745],[129.06506,35.201069],[129.064883,35.200767],[129.064824,35.200556],[129.064786,35.200333],[129.064808,35.200061],[129.064899,35.199627],[129.065067,35.19909],[129.065258,35.198478],[129.066013,35.196233],[129.06624,35.195559],[129.067396,35.191825],[129.067498,35.191414],[129.067551,35.191228],[129.067638,35.191087],[129.067769,35.190986],[129.0681,35.19094],[129.068548,35.190938],[129.068722,35.190925],[129.068851,35.190887],[129.069093,35.190809],[129.069353,35.190679],[129.070581,35.190123],[129.071266,35.189796],[129.072646,35.189123],[129.073067,35.188892],[129.073267,35.188804],[129.073474,35.188711],[129.074009,35.188493],[129.074244,35.188398],[129.074654,35.188238],[129.075166,35.188108],[129.076114,35.187889],[129.076161,35.187879],[129.076798,35.187731],[129.077307,35.187578],[129.078063,35.187306],[129.079639,35.186716],[129.080388,35.186432],[129.080422,35.186419],[129.080762,35.186293],[129.081028,35.186185],[129.081309,35.186039],[129.081512,35.185941],[129.081719,35.1858],[129.08185,35.185693],[129.081974,35.18557],[129.08217,35.185349],[129.082494,35.184605],[129.082573,35.184406],[129.083079,35.183113],[129.083224,35.182755],[129.083294,35.182532],[129.083318,35.18248],[129.083777,35.181462],[129.083998,35.180934],[129.084455,35.17983],[129.084477,35.179778],[129.08451,35.179701],[129.084881,35.178817],[129.084995,35.178569],[129.085239,35.177983],[129.085325,35.177791],[129.085483,35.177427],[129.085501,35.177385],[129.085844,35.176588],[129.085923,35.176404],[129.085938,35.17637],[129.085962,35.176306],[129.086185,35.175722],[129.086367,35.175336],[129.086625,35.174937],[129.086775,35.174771],[129.086963,35.174652],[129.087111,35.174587],[129.087231,35.174534],[129.087547,35.174459],[129.090632,35.174056],[129.092323,35.173857],[129.093277,35.173745],[129.094074,35.173638],[129.095503,35.173446],[129.09576,35.173412],[129.096606,35.1733],[129.098124,35.173142],[129.10031,35.1731],[129.100922,35.173085],[129.101154,35.173079],[129.101277,35.17309],[129.10193,35.17306],[129.102729,35.172885],[129.104435,35.172469],[129.107527,35.171683],[129.107868,35.171596],[129.108452,35.171453],[129.109016,35.171307],[129.109456,35.171175],[129.109751,35.171026],[129.111438,35.169853],[129.114009,35.168093],[129.114027,35.168081],[129.114204,35.167959],[129.1143,35.167894],[129.114319,35.167881],[129.11467,35.16764],[129.114863,35.167456],[129.114941,35.167358],[129.114994,35.167262],[129.115067,35.166935],[129.115046,35.16675],[129.114682,35.165368]]}}]}