{"type":"FeatureCollection","features":[{"type":"Feature","properties":{"line":"daegu-1","ref":"1","name":"대구 도시철도 1호선","color":"#D93F0C"},"geometry":{"type":"LineString","coordinates":[[128.489337,35.798676],[128.491581,35.800154],[128.492319,35.800566],[128.493134,35.801035],[128.493885,35.801362],[128.494411,35.801662],[128.495656,35.802624],[128.496063,35.802835],[128.496431,35.802961],[128.497655,35.803295],[128.49888,35.803572],[128.499309,35.803737],[128.500393,35.804279],[128.500838,35.804501],[128.501272,35.804686],[128.50197,35.804881],[128.5033,35.805223],[128.504413,35.80556],[128.505306,35.805856],[128.505886,35.806156],[128.506495,35.806619],[128.506905,35.806917],[128.508243,35.807598],[128.510649,35.808571],[128.510931,35.808692],[128.512508,35.809413],[128.514053,35.810075],[128.515652,35.810702],[128.516219,35.810944],[128.516644,35.811149],[128.516916,35.811328],[128.517181,35.811563],[128.517739,35.812058],[128.518709,35.812843],[128.519027,35.813018],[128.519395,35.813148],[128.519841,35.813243],[128.522682,35.813756],[128.525442,35.814285],[128.526329,35.814489],[128.52678,35.814631],[128.527948,35.815089],[128.528693,35.815346],[128.530435,35.81611],[128.534258,35.81788],[128.534494,35.817982],[128.534698,35.818037],[128.537361,35.818783],[128.537852,35.818939],[128.538354,35.819076],[128.541529,35.820033],[128.542015,35.820227],[128.542353,35.820466],[128.542667,35.820751],[128.54589,35.824011]]}},{"type":"Feature","properties":{"line":"daegu-1","ref":"1","name":"대구 도시철도 1호선","color":"#D93F0C"},"geometry":{"type":"LineString","coordinates":[[128.54589,35.824011],[128.54832,35.826929],[128.551746,35.830939],[128.551976,35.831248],[128.5525,35.831917],[128.552726,35.83217],[128.553092,35.832506],[128.555054,35.834055],[128.555231,35.83424],[128.555469,35.834496],[128.555612,35.834705],[128.556341,35.835982],[128.556647,35.836377],[128.556931,35.836695],[128.557157,35.836901],[128.557344,35.837054],[128.557586,35.83723],[128.557822,35.837395],[128.558087,35.837528],[128.558385,35.837658],[128.558817,35.837808],[128.561836,35.838575],[128.564079,35.839095],[128.564517,35.839176],[128.565032,35.839226],[128.569194,35.839402],[128.569881,35.839424],[128.570702,35.839367],[128.571332,35.839317],[128.57384,35.839162],[128.576707,35.838952],[128.577209,35.83895],[128.577466,35.838982],[128.577761,35.839074],[128.578078,35.839226],[128.579126,35.839725],[128.579552,35.839932],[128.581335,35.840796],[128.583147,35.841738]]}},{"type":"Feature","properties":{"line":"daegu-1","ref":"1","name":"대구 도시철도 1호선","color":"#D93F0C"},"geometry":{"type":"LineString","coordinates":[[128.583147,35.841738],[128.585942,35.843058],[128.588649,35.844385],[128.589827,35.844944],[128.590242,35.845156],[128.590421,35.845294],[128.59052,35.845402],[128.590574,35.84559],[128.590605,35.850394],[128.590728,35.854734],[128.590719,35.856339],[128.590753,35.856749],[128.5908,35.856942],[128.590962,35.857366],[128.592574,35.860703],[128.592811,35.861334],[128.593242,35.862777],[128.59328,35.862928],[128.593297,35.862994]]}},{"type":"Feature","properties":{"line":"daegu-1","ref":"1","name":"대구 도시철도 1호선","color":"#D93F0C"},"geometry":{"type":"LineString","coordinates":[[128.593297,35.862994],[128.593448,35.865208],[128.593698,35.868387],[128.593831,35.86938],[128.594103,35.87074],[128.594179,35.871113],[128.594192,35.871178],[128.59474,35.873976],[128.594828,35.874463],[128.595046,35.875056],[128.595385,35.87533],[128.59577,35.875564],[128.596414,35.875912],[128.597085,35.876225],[128.597521,35.876427],[128.598212,35.876645],[128.598738,35.876745],[128.599312,35.876784],[128.599875,35.87674],[128.600986,35.876523],[128.601628,35.876425],[128.60416,35.876245],[128.605062,35.87606],[128.606128,35.875826],[128.606878,35.875558],[128.608493,35.874809],[128.61031,35.873876],[128.610985,35.873698],[128.611447,35.873633],[128.611962,35.873646],[128.612353,35.873698],[128.613778,35.873956],[128.614068,35.873994],[128.615391,35.874016],[128.615758,35.874061],[128.616089,35.874144],[128.617604,35.874569],[128.620469,35.875227],[128.625157,35.876302],[128.626169,35.876542],[128.626496,35.876664],[128.626823,35.87682],[128.627092,35.877033],[128.627453,35.877299],[128.62771,35.87756],[128.628007,35.877938],[128.628123,35.878104],[128.628201,35.878166],[128.629439,35.880456],[128.629563,35.880772],[128.629712,35.881179],[128.629928,35.881568],[128.630419,35.882171],[128.63236,35.884496],[128.632596,35.884763],[128.63284,35.885],[128.633108,35.885191],[128.633414,35.88538],[128.633857,35.8856],[128.634291,35.885728],[128.636501,35.886058],[128.6372,35.88617],[128.63765,35.886273],[128.638035,35.886408],[128.639926,35.887119],[128.641936,35.887935],[128.643214,35.888402],[128.643708,35.888519],[128.644217,35.888558],[128.644689,35.888541],[128.645422,35.888314],[128.646362,35.887881],[128.650366,35.885997]]}},{"type":"Feature","properties":{"line":"daegu-1","ref":"1","name":"대구 도시철도 1호선","color":"#D93F0C"},"geometry":{"type":"LineString","coordinates":[[128.650366,35.885997],[128.653491,35.884432]]}},{"type":"Feature","properties":{"line":"daegu-1","ref":"1","name":"대구 도시철도 1호선","color":"#D93F0C"},"geometry":{"type":"LineString","coordinates":[[128.653491,35.884432],[128.653896,35.884275],[128.654295,35.884186],[128.654743,35.884127],[128.658863,35.883549],[128.660687,35.883314],[128.661385,35.883156],[128.661859,35.882995],[128.662364,35.882808],[128.667935,35.880308],[128.6685,35.880092],[128.669018,35.879925],[128.669633,35.879745],[128.679949,35.876656],[128.681384,35.876231],[128.687104,35.874523],[128.687919,35.874237],[128.688303,35.874011],[128.688568,35.87372],[128.689214,35.872987],[128.691497,35.870846],[128.692791,35.869676],[128.694107,35.868434],[128.694422,35.868152],[128.6947,35.867947],[128.694946,35.867791],[128.695493,35.867522],[128.696017,35.867327],[128.696661,35.867209],[128.697436,35.867129],[128.701703,35.866665],[128.707281,35.86609],[128.708485,35.865991],[128.71211,35.865928],[128.7137,35.865894],[128.715875,35.865866],[128.717587,35.865863],[128.718164,35.86592],[128.718639,35.866053],[128.719165,35.866209],[128.719636,35.866387],[128.723918,35.867844],[128.725594,35.868398],[128.73374,35.871142]]}},{"type":"Feature","properties":{"line":"daegu-1","ref":"1","name":"대구 도시철도 1호선","color":"#D93F0C"},"geometry":{"type":"LineString","coordinates":[[128.73374,35.871142],[128.73528,35.871682],[128.736199,35.871992],[128.736813,35.872119],[128.739147,35.872402],[128.739417,35.872427]]}},{"type":"Feature","properties":{"line":"daegu-1","ref":"1","name":"대구 도시철도 1호선","color":"#D93F0C"},"geometry":{"type":"LineString","coordinates":[[128.739417,35.872427],[128.74025,35.872473],[128.74062,35.872485],[128.740955,35.872476],[128.741219,35.87245],[128.741522,35.872408],[128.741801,35.872358],[128.742046,35.872296],[128.742288,35.872222],[128.742484,35.872156],[128.74333,35.87185],[128.743708,35.871724],[128.74417,35.871598],[128.744426,35.871538],[128.744703,35.871482],[128.745055,35.871418],[128.745556,35.871328]]}},{"type":"Feature","properties":{"line":"daegu-1","ref":"1","name":"대구 도시철도 1호선","color":"#D93F0C"},"geometry":{"type":"LineString","coordinates":[[128.745556,35.871328],[128.746583,35.871207],[128.746952,35.871173],[128.74733,35.871144],[128.747665,35.871134],[128.74796,35.871137],[128.748321,35.871156],[128.748685,35.871188],[128.749163,35.871241],[128.749661,35.87132],[128.749939,35.871371],[128.750253,35.871432],[128.75052,35.871484],[128.750789,35.87155],[128.751158,35.871657],[128.751574,35.871807],[128.75255,35.872151],[128.753829,35.872598],[128.755932,35.873338],[128.756603,35.873595],[128.756905,35.87373],[128.757136,35.873845],[128.75741,35.873989],[128.757618,35.874103],[128.757883,35.874262],[128.758096,35.874408],[128.75836,35.874598],[128.75922,35.875185],[128.759566,35.875431],[128.759755,35.875562],[128.760042,35.875736],[128.760422,35.875946],[128.760694,35.876087],[128.761079,35.876273],[128.761591,35.876524],[128.76233,35.876904],[128.762815,35.877147],[128.763351,35.877409],[128.7644,35.877912],[128.765337,35.87839],[128.766177,35.878801],[128.767016,35.879247],[128.76768,35.879581],[128.768126,35.879793],[128.768624,35.880037],[128.769143,35.880288],[128.769558,35.880489],[128.769876,35.880649],[128.770221,35.880826],[128.770854,35.881156],[128.771418,35.881446],[128.771854,35.881656],[128.772202,35.881827],[128.772532,35.882013],[128.772903,35.882262]]}},{"type":"Feature","properties":{"line":"daegu-1","ref":"1","name":"대구 도시철도 1호선","color":"#D93F0C"},"geometry":{"type":"LineString","coordinates":[[128.772903,35.882262],[128.773497,35.882674],[128.77411,35.88308],[128.774755,35.883508]]}},{"type":"Feature","properties":{"line":"daegu-1","ref":"1","name":"대구 도시철도 1호선","color":"#D93F0C"},"geometry":{"type":"LineString","coordinates":[[128.774755,35.883508],[128.775967,35.884329],[128.776282,35.884547],[128.776534,35.884784],[128.776882,35.885144],[128.777097,35.885355]]}},{"type":"Feature","properties":{"line":"daegu-1","ref":"1","name":"대구 도시철도 1호선","color":"#D93F0C"},"geometry":{"type":"LineString","coordinates":[[128.777097,35.885355],[128.777523,35.885843]]}},{"type":"Feature","properties":{"line":"daegu-1","ref":"1","name":"대구 도시철도 1호선","color":"#D93F0C"},"geometry":{"type":"LineString","coordinates":[[128.777523,35.885843],[128.77769,35.886044],[128.77803,35.88655],[128.778548,35.887342],[128.778732,35.887633],[128.779007,35.888032],[128.779289,35.888456],[128.779516,35.888807]]}},{"type":"Feature","properties":{"line":"daegu-1","ref":"1","name":"대구 도시철도 1호선","color":"#D93F0C"},"geometry":{"type":"LineString","coordinates":[[128.779516,35.888807],[128.779552,35.888862],[128.779834,35.889243],[128.780221,35.889742],[128.780261,35.889788]]}},{"type":"Feature","properties":{"line":"daegu-1","ref":"1","name":"대구 도시철도 1호선","color":"#D93F0C"},"geometry":{"type":"LineString","coordinates":[[128.780261,35.889788],[128.780545,35.890109],[128.780839,35.890421],[128.781241,35.890812],[128.781594,35.891164],[128.782118,35.891642],[128.782678,35.89218],[128.783315,35.892761],[128.783438,35.892868],[128.78365,35.893015],[128.783798,35.893117],[128.784023,35.893262],[128.784313,35.89344],[128.784568,35.893586],[128.784778,35.893712],[128.785278,35.893978],[128.786172,35.894461],[128.786805,35.894786],[128.786965,35.894877],[128.787504,35.895175],[128.78786,35.895372],[128.788238,35.895602],[128.788844,35.895965],[128.789307,35.896228],[128.78975,35.89647],[128.79018,35.896694],[128.790649,35.89693],[128.791186,35.897187],[128.791511,35.897344],[128.791789,35.897483],[128.791961,35.897577],[128.792145,35.897685],[128.792358,35.89782],[128.792674,35.898032],[128.793082,35.898323],[128.79349,35.898623],[128.793768,35.898824],[128.794001,35.898981],[128.79415,35.899072],[128.794336,35.899166],[128.794485,35.899242],[128.794717,35.899341],[128.795011,35.89944],[128.795221,35.8995],[128.795456,35.899561],[128.795565,35.899577],[128.795745,35.899601],[128.795914,35.899623],[128.796238,35.899645],[128.796473,35.899647],[128.796932,35.899633],[128.797317,35.899625],[128.79975,35.899538],[128.800147,35.899538],[128.800645,35.899566],[128.801027,35.89962],[128.801568,35.899718],[128.8021,35.899834],[128.802476,35.899948],[128.80311,35.900159],[128.804687,35.90072],[128.805219,35.900958],[128.805564,35.901138],[128.80586,35.901306],[128.806388,35.901661],[128.806814,35.902011],[128.807207,35.902391],[128.80751,35.902725],[128.807696,35.90294],[128.808047,35.903332],[128.808474,35.903774],[128.80885,35.904199],[128.809121,35.904517],[128.809283,35.904715],[128.809414,35.904851],[128.809604,35.905052],[128.809771,35.905239],[128.809973,35.905431],[128.810206,35.905646],[128.810371,35.905785],[128.810534,35.905904],[128.810659,35.905985],[128.810825,35.906085],[128.811059,35.906219],[128.811197,35.906283],[128.811494,35.906413],[128.81217,35.906691],[128.813146,35.907069],[128.813437,35.907182],[128.813745,35.907305],[128.813948,35.907394],[128.814221,35.907527],[128.814461,35.907648],[128.814805,35.907832],[128.815235,35.908074],[128.816018,35.908527],[128.817545,35.909397]]}},{"type":"Feature","properties":{"line":"daegu-1","ref":"1","name":"대구 도시철도 1호선","color":"#D93F0C"},"geometry":{"type":"LineString","coordinates":[[128.817523,35.909432],[128.815981,35.908543],[128.81556,35.908308],[128.815205,35.908099],[128.814839,35.907895],[128.814679,35.907812],[128.814454,35.907681],[128.814254,35.907578],[128.814057,35.907481],[128.813818,35.90736],[128.813645,35.907287],[128.813491,35.907225],[128.81324,35.907127],[128.812996,35.907038],[128.812275,35.906759],[128.81182,35.906571],[128.811363,35.906382],[128.811075,35.906251],[128.810796,35.906094],[128.810593,35.905972],[128.810424,35.905863],[128.810231,35.905712],[128.809969,35.905463],[128.809729,35.905236],[128.809527,35.905004],[128.809262,35.904723],[128.808834,35.904228],[128.808371,35.903722],[128.807166,35.902403],[128.806784,35.902041],[128.806373,35.901696],[128.805899,35.901368],[128.805653,35.901218],[128.805436,35.901101],[128.805188,35.900978],[128.804667,35.900753],[128.803081,35.900193],[128.802246,35.899919],[128.801941,35.899838],[128.801598,35.899763],[128.801121,35.899676],[128.800823,35.899628],[128.800437,35.899594],[128.800145,35.899577],[128.799783,35.899573],[128.79879,35.899598],[128.797323,35.899653],[128.796913,35.899667],[128.79647,35.899676],[128.796254,35.899671],[128.796105,35.899659],[128.7959,35.899646],[128.795669,35.899618],[128.795498,35.899594],[128.795311,35.899549],[128.795149,35.899504],[128.794964,35.899448],[128.794769,35.899381],[128.7946,35.899318],[128.794389,35.899222],[128.794226,35.899138],[128.794042,35.899036],[128.793882,35.89893],[128.793716,35.898817],[128.793313,35.898522],[128.792853,35.898183],[128.792396,35.897865],[128.792056,35.897653],[128.791772,35.897498],[128.791287,35.897257],[128.790533,35.8969],[128.789691,35.896466],[128.789142,35.896162],[128.788219,35.895626],[128.787815,35.895374],[128.787322,35.895104],[128.786798,35.894822],[128.78627,35.894553],[128.785497,35.894134],[128.784766,35.893742],[128.784348,35.893496],[128.783979,35.89326],[128.783513,35.892958],[128.782733,35.892297],[128.782077,35.891679],[128.781206,35.890847],[128.780539,35.890155],[128.780243,35.889815]]}},{"type":"Feature","properties":{"line":"daegu-1","ref":"1","name":"대구 도시철도 1호선","color":"#D93F0C"},"geometry":{"type":"LineString","coordinates":[[128.780243,35.889815],[128.780045,35.889589],[128.779712,35.889153],[128.779476,35.888835]]}},{"type":"Feature","properties":{"line":"daegu-1","ref":"1","name":"대구 도시철도 1호선","color":"#D93F0C"},"geometry":{"type":"LineString","coordinates":[[128.779476,35.888835],[128.778988,35.888127],[128.778393,35.887211],[128.777748,35.886233],[128.777461,35.88587]]}},{"type":"Feature","properties":{"line":"daegu-1","ref":"1","name":"대구 도시철도 1호선","color":"#D93F0C"},"geometry":{"type":"LineString","coordinates":[[128.777461,35.88587],[128.776933,35.885277]]}},{"type":"Feature","properties":{"line":"daegu-1","ref":"1","name":"대구 도시철도 1호선","color":"#D93F0C"},"geometry":{"type":"LineString","coordinates":[[128.776933,35.885277],[128.776743,35.885075],[128.776475,35.884796],[128.776258,35.884587],[128.775987,35.884395],[128.775635,35.884154],[128.774658,35.883539]]}},{"type":"Feature","properties":{"line":"daegu-1","ref":"1","name":"대구 도시철도 1호선","color":"#D93F0C"},"geometry":{"type":"LineString","coordinates":[[128.774658,35.883539],[128.774414,35.883351],[128.773818,35.882956],[128.772852,35.882285]]}},{"type":"Feature","properties":{"line":"daegu-1","ref":"1","name":"대구 도시철도 1호선","color":"#D93F0C"},"geometry":{"type":"LineString","coordinates":[[128.772852,35.882285],[128.772607,35.882109],[128.77231,35.881932],[128.772005,35.881771],[128.77167,35.881606],[128.770297,35.880907],[128.769678,35.880581],[128.769188,35.880349],[128.768779,35.880144],[128.767871,35.879704],[128.767134,35.879331],[128.766498,35.878999],[128.765916,35.87871],[128.765274,35.878398],[128.764278,35.877898],[128.763328,35.877433],[128.762309,35.876943],[128.761851,35.876702],[128.761168,35.87636],[128.760392,35.87597],[128.75985,35.875656],[128.759253,35.875256],[128.758151,35.874479],[128.758104,35.874446],[128.757881,35.874286],[128.757579,35.874103],[128.757319,35.873968],[128.756983,35.873798],[128.756866,35.873743],[128.756622,35.873633],[128.756198,35.87347],[128.755762,35.873317],[128.75507,35.873096],[128.754372,35.872834],[128.753864,35.872652],[128.753176,35.872422],[128.752359,35.872124],[128.751754,35.871915],[128.751306,35.871748],[128.751116,35.87168],[128.750842,35.8716],[128.750622,35.871543],[128.750379,35.871489],[128.750071,35.87143],[128.749742,35.87137],[128.749422,35.871315],[128.749082,35.871266],[128.748322,35.871192],[128.747982,35.871183],[128.747626,35.871179],[128.747251,35.871186],[128.746981,35.871204],[128.746575,35.871241],[128.74558,35.871359]]}},{"type":"Feature","properties":{"line":"daegu-1","ref":"1","name":"대구 도시철도 1호선","color":"#D93F0C"},"geometry":{"type":"LineString","coordinates":[[128.74558,35.871359],[128.74473,35.871514],[128.744143,35.871642],[128.743545,35.871821],[128.742509,35.872209],[128.742143,35.872347],[128.741967,35.872402],[128.741771,35.872441],[128.741585,35.872467],[128.741355,35.872489],[128.741119,35.872512],[128.740855,35.872531],[128.740487,35.872545],[128.740069,35.872538],[128.739824,35.872532],[128.739545,35.872512],[128.739436,35.872499]]}},{"type":"Feature","properties":{"line":"daegu-1","ref":"1","name":"대구 도시철도 1호선","color":"#D93F0C"},"geometry":{"type":"LineString","coordinates":[[128.739436,35.872499],[128.739016,35.872449],[128.736774,35.872182],[128.736166,35.872067],[128.733691,35.871234]]}},{"type":"Feature","properties":{"line":"daegu-1","ref":"1","name":"대구 도시철도 1호선","color":"#D93F0C"},"geometry":{"type":"LineString","coordinates":[[128.65353,35.884463],[128.653927,35.884327],[128.654326,35.884238],[128.654774,35.884179],[128.658894,35.883621],[128.660718,35.883397],[128.661434,35.883238],[128.661896,35.883075],[128.662395,35.88286],[128.667966,35.880361],[128.66856,35.880155],[128.668995,35.880023],[128.669677,35.879837],[128.679988,35.87675],[128.681427,35.876319],[128.687149,35.874606],[128.688001,35.874311],[128.688385,35.874085],[128.68865,35.873794],[128.689293,35.87305],[128.691579,35.870909],[128.692851,35.869757],[128.694213,35.868517],[128.694534,35.868206],[128.694782,35.868008],[128.695022,35.867846],[128.69554,35.867587],[128.696069,35.867423],[128.696683,35.867307],[128.697451,35.867216],[128.701707,35.866781],[128.707312,35.866216],[128.708489,35.8661],[128.71213,35.866024],[128.713701,35.866],[128.715874,35.865949],[128.717575,35.865946],[128.718158,35.866003],[128.718595,35.866119],[128.719183,35.866321],[128.719677,35.866478],[128.723887,35.86792],[128.725566,35.868477],[128.733691,35.871234]]}},{"type":"Feature","properties":{"line":"daegu-1","ref":"1","name":"대구 도시철도 1호선","color":"#D93F0C"},"geometry":{"type":"LineString","coordinates":[[128.650405,35.886027],[128.65353,35.884463]]}},{"type":"Feature","properties":{"line":"daegu-1","ref":"1","name":"대구 도시철도 1호선","color":"#D93F0C"},"geometry":{"type":"LineString","coordinates":[[128.632277,35.884536],[128.632608,35.884912],[128.632858,35.885148],[128.633158,35.885352],[128.633439,35.88552],[128.633832,35.88571],[128.634268,35.885819],[128.636723,35.886199],[128.637017,35.886231],[128.637473,35.886349],[128.638569,35.886736],[128.639886,35.887226],[128.640563,35.887491],[128.641801,35.887975],[128.642397,35.888199],[128.643105,35.88848],[128.64362,35.888607],[128.64411,35.888646],[128.644599,35.888633],[128.645069,35.888543],[128.645464,35.888414],[128.650405,35.886027]]}},{"type":"Feature","properties":{"line":"daegu-1","ref":"1","name":"대구 도시철도 1호선","color":"#D93F0C"},"geometry":{"type":"LineString","coordinates":[[128.632277,35.884536],[128.630771,35.882702],[128.630253,35.882074],[128.629866,35.881582],[128.629657,35.881208],[128.629389,35.880489],[128.62894,35.87963],[128.628122,35.878158],[128.62779,35.877723],[128.627527,35.877461]]}},{"type":"Feature","properties":{"line":"daegu-1","ref":"1","name":"대구 도시철도 1호선","color":"#D93F0C"},"geometry":{"type":"LineString","coordinates":[[128.627527,35.877461],[128.626845,35.876892],[128.626477,35.876709],[128.626039,35.876576],[128.625124,35.876379],[128.624645,35.876276],[128.62325,35.875961],[128.617485,35.874625]]}},{"type":"Feature","properties":{"line":"daegu-1","ref":"1","name":"대구 도시철도 1호선","color":"#D93F0C"},"geometry":{"type":"LineString","coordinates":[[128.617485,35.874625],[128.616955,35.874487],[128.615991,35.874226],[128.615724,35.87415],[128.615379,35.874106],[128.614061,35.874072],[128.613751,35.874032],[128.612552,35.873819],[128.611975,35.873722],[128.611467,35.87371],[128.6112,35.87374],[128.610952,35.873779],[128.610644,35.873864],[128.610294,35.87396],[128.60909,35.874582],[128.608273,35.874999],[128.60776,35.875213],[128.606898,35.875601],[128.60632,35.875806],[128.605995,35.875909],[128.605094,35.876123]]}},{"type":"Feature","properties":{"line":"daegu-1","ref":"1","name":"대구 도시철도 1호선","color":"#D93F0C"},"geometry":{"type":"LineString","coordinates":[[128.605094,35.876123],[128.604105,35.876331],[128.602524,35.876411],[128.601628,35.876481],[128.601106,35.876576],[128.599852,35.876824],[128.599298,35.876874],[128.598713,35.876827],[128.598174,35.87672],[128.597455,35.8765],[128.597083,35.876311]]}},{"type":"Feature","properties":{"line":"daegu-1","ref":"1","name":"대구 도시철도 1호선","color":"#D93F0C"},"geometry":{"type":"LineString","coordinates":[[128.597083,35.876311],[128.596376,35.875984],[128.595542,35.875528],[128.595316,35.875386],[128.595028,35.875141],[128.594879,35.874919],[128.594718,35.874543],[128.593966,35.870742]]}},{"type":"Feature","properties":{"line":"daegu-1","ref":"1","name":"대구 도시철도 1호선","color":"#D93F0C"},"geometry":{"type":"LineString","coordinates":[[128.593966,35.870742],[128.593673,35.86894],[128.593416,35.866064],[128.593375,35.865631],[128.593343,35.865188],[128.593187,35.863087]]}},{"type":"Feature","properties":{"line":"daegu-1","ref":"1","name":"대구 도시철도 1호선","color":"#D93F0C"},"geometry":{"type":"LineString","coordinates":[[128.583034,35.841768],[128.58583,35.843088],[128.588536,35.844414],[128.589714,35.844973],[128.59013,35.845185],[128.590308,35.845323],[128.590408,35.845432],[128.590461,35.84562],[128.590493,35.850423],[128.590615,35.854764],[128.590607,35.856368],[128.59064,35.856779],[128.590687,35.856971],[128.59085,35.857395],[128.592461,35.860733],[128.592698,35.861363],[128.593129,35.862806],[128.593168,35.862957],[128.593187,35.863087]]}},{"type":"Feature","properties":{"line":"daegu-1","ref":"1","name":"대구 도시철도 1호선","color":"#D93F0C"},"geometry":{"type":"LineString","coordinates":[[128.545751,35.824057],[128.54824,35.827001],[128.551633,35.831005],[128.551897,35.831321],[128.552421,35.83199],[128.552646,35.832242],[128.553012,35.832578],[128.554974,35.834128],[128.555151,35.834312],[128.55539,35.834569],[128.555532,35.834778],[128.556262,35.836054],[128.556567,35.83645],[128.556852,35.836767],[128.557077,35.836974],[128.557265,35.837126],[128.557506,35.837302],[128.557742,35.837467],[128.558008,35.8376],[128.558305,35.83773],[128.558737,35.837881],[128.561756,35.838647],[128.564,35.839168],[128.564437,35.839248],[128.564952,35.839298],[128.569115,35.839474],[128.569801,35.839496],[128.570692,35.839466],[128.571335,35.839422],[128.57376,35.839234],[128.576711,35.839048],[128.577199,35.839033],[128.577451,35.839121],[128.577682,35.839146],[128.577998,35.839298],[128.579046,35.839797],[128.579472,35.840004],[128.581253,35.840885],[128.583034,35.841768]]}},{"type":"Feature","properties":{"line":"daegu-1","ref":"1","name":"대구 도시철도 1호선","color":"#D93F0C"},"geometry":{"type":"LineString","coordinates":[[128.489229,35.798702],[128.491474,35.800181],[128.492211,35.800592],[128.493027,35.801062],[128.493778,35.801388],[128.494304,35.801688],[128.495548,35.80265],[128.495956,35.802861],[128.496323,35.802987],[128.497548,35.803321],[128.498772,35.803598],[128.499201,35.803764],[128.500285,35.804305],[128.50073,35.804527],[128.501165,35.804712],[128.501862,35.804908],[128.503192,35.80525],[128.504305,35.805587],[128.505199,35.805883],[128.505778,35.806183],[128.506387,35.806646],[128.506797,35.806944],[128.508136,35.807625],[128.510542,35.808597],[128.510823,35.808719],[128.5124,35.809439],[128.513945,35.810102],[128.515545,35.810728],[128.516111,35.810971],[128.516536,35.811175],[128.516809,35.811354],[128.517074,35.811589],[128.517632,35.812085],[128.518601,35.812869],[128.518979,35.813084],[128.519357,35.813222],[128.519809,35.813319],[128.522553,35.813828],[128.525334,35.814311],[128.526222,35.814516],[128.526672,35.814657],[128.52784,35.815115],[128.528585,35.815373],[128.530378,35.816181],[128.534151,35.817907],[128.534387,35.818009],[128.53459,35.818063],[128.537254,35.818809],[128.537745,35.818966],[128.538246,35.819103],[128.541422,35.82006],[128.541907,35.820253],[128.542245,35.820493],[128.542559,35.820777],[128.545751,35.824057]]}}]}