{"type":"FeatureCollection","features":[{"type":"Feature","properties":{"line":"busan-1","ref":"1","name":"부산 도시철도 1호선: 노포 → 다대포해수욕장","color":"#F06A00"},"geometry":{"type":"LineString","coordinates":[[129.095159,35.284198],[129.094617,35.282661]]}},{"type":"Feature","properties":{"line":"busan-1","ref":"1","name":"부산 도시철도 1호선: 노포 → 다대포해수욕장","color":"#F06A00"},"geometry":{"type":"LineString","coordinates":[[129.094617,35.282661],[129.094363,35.281813],[129.094191,35.281283],[129.094052,35.280837],[129.093939,35.280422],[129.093855,35.279972],[129.093362,35.277856]]}},{"type":"Feature","properties":{"line":"busan-1","ref":"1","name":"부산 도시철도 1호선: 노포 → 다대포해수욕장","color":"#F06A00"},"geometry":{"type":"LineString","coordinates":[[129.093362,35.277856],[129.093167,35.277183],[129.092935,35.276387],[129.092824,35.275911],[129.092704,35.275334],[129.092649,35.274951],[129.092628,35.274652],[129.092651,35.273156],[129.09269,35.270879],[129.092762,35.267159],[129.092767,35.266757],[129.092715,35.266434],[129.09265,35.265997],[129.09246,35.265244],[129.092089,35.263515],[129.091442,35.260581],[129.091418,35.260381],[129.091409,35.260004],[129.091378,35.257066],[129.091377,35.256991],[129.091377,35.256958],[129.091377,35.256923]]}},{"type":"Feature","properties":{"line":"busan-1","ref":"1","name":"부산 도시철도 1호선: 노포 → 다대포해수욕장","color":"#F06A00"},"geometry":{"type":"LineString","coordinates":[[129.091377,35.256923],[129.091379,35.256863],[129.091398,35.256396],[129.091399,35.256353],[129.091446,35.255914],[129.091529,35.25529],[129.091579,35.254849],[129.091666,35.254312]]}},{"type":"Feature","properties":{"line":"busan-1","ref":"1","name":"부산 도시철도 1호선: 노포 → 다대포해수욕장","color":"#F06A00"},"geometry":{"type":"LineString","coordinates":[[129.091666,35.254312],[129.091731,35.253877],[129.091752,35.25361],[129.091752,35.253373],[129.091734,35.253016],[129.091727,35.252855],[129.091692,35.252568],[129.091661,35.252132],[129.091563,35.251039],[129.091498,35.250284],[129.091343,35.248042],[129.091249,35.246878],[129.091226,35.246602]]}},{"type":"Feature","properties":{"line":"busan-1","ref":"1","name":"부산 도시철도 1호선: 노포 → 다대포해수욕장","color":"#F06A00"},"geometry":{"type":"LineString","coordinates":[[129.091226,35.246602],[129.091134,35.245872],[129.091027,35.244575],[129.090991,35.244279],[129.090962,35.244121],[129.090933,35.24402],[129.090901,35.243904],[129.090874,35.243817],[129.090831,35.243707],[129.090789,35.2436],[129.090721,35.243447],[129.090619,35.243257],[129.090469,35.243026],[129.090358,35.242888],[129.0902,35.242721],[129.09003,35.24254],[129.0899,35.242416],[129.089707,35.242241],[129.089544,35.242081],[129.089335,35.241893],[129.089144,35.241714],[129.088965,35.241518],[129.088812,35.241341],[129.088672,35.241154],[129.088551,35.24096],[129.088457,35.240778],[129.088403,35.240666],[129.088341,35.240505],[129.088298,35.240359],[129.088259,35.240206],[129.08821,35.240025],[129.088183,35.239841],[129.088076,35.23891],[129.088069,35.238851],[129.088067,35.238838],[129.088062,35.238782],[129.088054,35.238706],[129.088054,35.23859],[129.088045,35.238456],[129.088079,35.238123],[129.088101,35.238043],[129.088131,35.237935],[129.088165,35.237751],[129.088302,35.237332]]}},{"type":"Feature","properties":{"line":"busan-1","ref":"1","name":"부산 도시철도 1호선: 노포 → 다대포해수욕장","color":"#F06A00"},"geometry":{"type":"LineString","coordinates":[[129.088302,35.237332],[129.088327,35.237276],[129.088458,35.236956],[129.0885,35.236858],[129.088501,35.236854],[129.088517,35.236817],[129.08859,35.236649],[129.08883,35.23609],[129.089268,35.235033],[129.089324,35.234879],[129.089398,35.234575],[129.089431,35.234371],[129.08945,35.234156],[129.089452,35.234006],[129.089451,35.233822],[129.089425,35.233601],[129.08938,35.233341],[129.089311,35.232949],[129.089249,35.232597],[129.089166,35.232118],[129.089126,35.231786],[129.089107,35.231571],[129.089103,35.231435],[129.089121,35.231181],[129.089166,35.230793],[129.0892,35.230589],[129.089203,35.230578],[129.08923,35.230416],[129.089264,35.230166],[129.089281,35.229973],[129.08932,35.229694],[129.089333,35.22957],[129.089341,35.229215],[129.089343,35.228719]]}},{"type":"Feature","properties":{"line":"busan-1","ref":"1","name":"부산 도시철도 1호선: 노포 → 다대포해수욕장","color":"#F06A00"},"geometry":{"type":"LineString","coordinates":[[129.089343,35.228719],[129.089323,35.228501],[129.089181,35.227509],[129.089111,35.226959],[129.089023,35.226324],[129.088982,35.226005],[129.088963,35.225835],[129.088933,35.225651],[129.088897,35.225504],[129.08881,35.225168],[129.088712,35.224864],[129.088632,35.224639],[129.08854,35.224431],[129.088039,35.223391],[129.087357,35.222136],[129.086801,35.221114],[129.086769,35.22106],[129.086188,35.220038],[129.085914,35.219555],[129.085789,35.219357],[129.0856,35.219095],[129.085113,35.218466],[129.084819,35.21811],[129.084382,35.217593],[129.083909,35.217007],[129.08375,35.216803],[129.08356,35.216582],[129.083392,35.216414],[129.083202,35.216253],[129.08309,35.216163],[129.082926,35.216045],[129.082395,35.215726],[129.08229,35.215653],[129.08195,35.215429],[129.081735,35.215275],[129.081555,35.215135],[129.08141,35.215005],[129.081268,35.214867],[129.081082,35.214667],[129.08096,35.214533],[129.08078,35.214296],[129.080166,35.213361],[129.079539,35.212437],[129.079159,35.211837],[129.078971,35.21154],[129.078872,35.21133],[129.078762,35.211099],[129.078696,35.210929],[129.078653,35.210791],[129.078608,35.210646],[129.078534,35.210402],[129.078495,35.210209],[129.078462,35.210007],[129.078419,35.209556],[129.078412,35.20924],[129.078433,35.207712],[129.078437,35.206547],[129.07844,35.206495],[129.078454,35.205308],[129.078461,35.204724],[129.078467,35.204023],[129.07846,35.202755],[129.078464,35.202558],[129.078488,35.202337],[129.078524,35.202115],[129.078544,35.201979],[129.078602,35.201713],[129.078953,35.200292],[129.079671,35.197389]]}},{"type":"Feature","properties":{"line":"busan-1","ref":"1","name":"부산 도시철도 1호선: 노포 → 다대포해수욕장","color":"#F06A00"},"geometry":{"type":"LineString","coordinates":[[129.079671,35.197389],[129.079819,35.196761],[129.079914,35.196106],[129.079927,35.195715],[129.079929,35.195369],[129.079931,35.19502],[129.079877,35.19455],[129.079814,35.194234],[129.07981,35.193217],[129.080002,35.192173],[129.080637,35.189678],[129.081188,35.187447],[129.081417,35.18638],[129.081385,35.186018],[129.081358,35.185894],[129.081129,35.185563],[129.077436,35.180958],[129.076475,35.179772],[129.075781,35.178917],[129.074813,35.177667],[129.071932,35.174043],[129.071257,35.173193],[129.069649,35.171168],[129.068371,35.169574],[129.067543,35.168571],[129.066398,35.166983],[129.065282,35.165648],[129.064285,35.164482],[129.06289,35.162633],[129.062135,35.161631],[129.059451,35.158195],[129.059342,35.158055],[129.059032,35.157155],[129.059046,35.154769],[129.059091,35.150764],[129.059143,35.147931],[129.05915,35.14724],[129.059179,35.144427],[129.05933,35.140964],[129.0594,35.139345],[129.059246,35.138838],[129.059032,35.138403],[129.058312,35.137741],[129.056821,35.136856],[129.054998,35.135062],[129.054301,35.134368],[129.052297,35.132368],[129.050096,35.130122],[129.049001,35.129046],[129.044919,35.125034],[129.044367,35.123979],[129.042901,35.121226],[129.040429,35.116585],[129.039864,35.115625],[129.039368,35.114781],[129.038715,35.113253],[129.037102,35.109324],[129.036313,35.107636],[129.036127,35.106797],[129.036216,35.105195],[129.036287,35.103843],[129.036408,35.101538],[129.036526,35.099471],[129.036253,35.099017],[129.035462,35.098135],[129.034502,35.097899],[129.033771,35.097736],[129.032876,35.09785],[129.030719,35.098382],[129.030209,35.098304],[129.026678,35.097384],[129.026146,35.097246],[129.023885,35.096605],[129.022806,35.096648],[129.022186,35.096907],[129.020604,35.098201],[129.019984,35.099023],[129.019792,35.099615],[129.019888,35.100762],[129.019999,35.10207],[129.020235,35.105231],[129.020346,35.107534],[129.020213,35.107842],[129.018536,35.109232],[129.018299,35.109462],[129.017826,35.110346],[129.017486,35.110979],[129.016811,35.11157],[129.01624,35.111881],[129.015198,35.112018],[129.013642,35.111597],[129.011223,35.110663],[129.010181,35.109811],[129.008613,35.108354],[129.004145,35.105807],[129.000866,35.103752],[128.999973,35.103231],[128.999256,35.10287],[128.99677,35.101568],[128.995047,35.100736],[128.994244,35.100417],[128.993447,35.100255],[128.991521,35.099694],[128.989944,35.099325],[128.986913,35.099145],[128.98326,35.099875],[128.981707,35.100191],[128.980503,35.100425],[128.980086,35.10056],[128.979621,35.100792],[128.977447,35.10219],[128.976654,35.102558],[128.975018,35.103132],[128.973849,35.103508],[128.972997,35.103784],[128.970243,35.10472],[128.969797,35.104958],[128.969527,35.10514],[128.968573,35.105773],[128.967859,35.106031],[128.967407,35.106133],[128.966801,35.106208],[128.965592,35.106258],[128.963528,35.10629],[128.96305,35.106249],[128.96252,35.106095],[128.962277,35.105963],[128.961706,35.105434],[128.961332,35.104851],[128.961101,35.104401],[128.961088,35.104332],[128.960893,35.103289],[128.960766,35.102435],[128.960727,35.10185],[128.960679,35.100288],[128.96068,35.099015],[128.960662,35.098315]]}},{"type":"Feature","properties":{"line":"busan-1","ref":"1","name":"부산 도시철도 1호선: 노포 → 다대포해수욕장","color":"#F06A00"},"geometry":{"type":"LineString","coordinates":[[128.960662,35.098315],[128.960661,35.098282],[128.960647,35.0976],[128.960631,35.096753],[128.960655,35.095965],[128.960669,35.094938],[128.960675,35.094477],[128.960683,35.094127],[128.960686,35.09397],[128.960692,35.093801],[128.960694,35.093665],[128.960698,35.093527],[128.960695,35.093036],[128.960716,35.092583],[128.960725,35.092512]]}},{"type":"Feature","properties":{"line":"busan-1","ref":"1","name":"부산 도시철도 1호선: 노포 → 다대포해수욕장","color":"#F06A00"},"geometry":{"type":"LineString","coordinates":[[128.960725,35.092512],[128.960732,35.092267],[128.96077,35.091655],[128.96084,35.091241],[128.96113,35.090751],[128.961709,35.090332],[128.962442,35.090074],[128.965134,35.090044],[128.966065,35.090054],[128.972226,35.089846],[128.973442,35.089785],[128.974734,35.089721],[128.977466,35.089566],[128.977681,35.089492],[128.977776,35.089366],[128.977792,35.089232],[128.97753,35.085123],[128.977402,35.08253],[128.977387,35.081935],[128.97737,35.080639],[128.977357,35.080562],[128.977469,35.079094],[128.97748,35.078502],[128.977441,35.077993],[128.976851,35.074627],[128.976718,35.073872],[128.976634,35.073489],[128.976596,35.073113],[128.976641,35.072755],[128.977818,35.069415],[128.978049,35.068981],[128.978416,35.068486],[128.978812,35.068073],[128.979328,35.06756],[128.979611,35.067274],[128.979843,35.066917],[128.979952,35.06655],[128.979959,35.066187],[128.979789,35.065455],[128.979785,35.06544],[128.979671,35.064949],[128.979589,35.064566],[128.979572,35.064285],[128.97958,35.06376],[128.979557,35.063481],[128.979429,35.063239],[128.979172,35.063076],[128.978338,35.062842],[128.977202,35.062004],[128.975861,35.061371],[128.975365,35.061112],[128.974942,35.060836],[128.97462,35.060508],[128.974268,35.060079],[128.973902,35.059794],[128.973373,35.059621],[128.972851,35.059428],[128.972464,35.059235],[128.972043,35.058942],[128.971793,35.058534],[128.971436,35.057888],[128.970926,35.056965],[128.970618,35.056443],[128.970515,35.056103],[128.970484,35.055755],[128.9705,35.055437],[128.970791,35.053916],[128.970994,35.052871],[128.971033,35.052566],[128.971023,35.052274],[128.970984,35.05201],[128.970702,35.051263],[128.969765,35.048602],[128.969681,35.048414],[128.969625,35.0483],[128.96959,35.048229],[128.969439,35.048057],[128.969257,35.0479],[128.968924,35.047751],[128.968559,35.047665],[128.96811,35.047627],[128.967763,35.047653],[128.967396,35.047733],[128.966232,35.048086]]}},{"type":"Feature","properties":{"line":"busan-1","ref":"1","name":"부산 도시철도 1호선: 다대포해수욕장 → 노포","color":"#F06A00"},"geometry":{"type":"LineString","coordinates":[[128.960698,35.049736],[128.96204,35.049316],[128.96506,35.048396]]}},{"type":"Feature","properties":{"line":"busan-1","ref":"1","name":"부산 도시철도 1호선: 다대포해수욕장 → 노포","color":"#F06A00"},"geometry":{"type":"LineString","coordinates":[[128.96506,35.048396],[128.965708,35.048194],[128.966205,35.048037]]}},{"type":"Feature","properties":{"line":"busan-1","ref":"1","name":"부산 도시철도 1호선: 다대포해수욕장 → 노포","color":"#F06A00"},"geometry":{"type":"LineString","coordinates":[[128.966205,35.048037],[128.966912,35.047841],[128.96788,35.047587],[128.968811,35.047578],[128.969305,35.04781],[128.969745,35.048161],[128.969781,35.048269],[128.970483,35.050364],[128.971145,35.052163],[128.971119,35.052914],[128.971009,35.053428],[128.97067,35.055533],[128.970806,35.056415],[128.971374,35.05761],[128.97152,35.057855],[128.972055,35.058752],[128.972559,35.059165],[128.973854,35.059657],[128.974305,35.059966],[128.974933,35.060697],[128.975628,35.061145],[128.977246,35.061883],[128.978361,35.062723],[128.978797,35.062887],[128.979447,35.063074],[128.979691,35.063491],[128.979691,35.064054],[128.979684,35.064659],[128.9799,35.065419],[128.980061,35.065983],[128.980016,35.066751],[128.979595,35.067446],[128.978354,35.068734],[128.977874,35.069454],[128.977032,35.071964],[128.976696,35.072823],[128.976707,35.073199],[128.976847,35.074248],[128.976924,35.074626],[128.977214,35.076038],[128.977574,35.078096],[128.977594,35.079277],[128.977474,35.08086],[128.977499,35.081931],[128.977513,35.082528],[128.977598,35.083972],[128.977802,35.087808],[128.97792,35.089361],[128.977791,35.089567],[128.977399,35.089672],[128.975075,35.089851],[128.973453,35.089897],[128.971111,35.089964],[128.966751,35.090122],[128.963502,35.090094],[128.962467,35.090102],[128.961759,35.090357],[128.961512,35.09051],[128.961135,35.090857],[128.960868,35.091281],[128.960833,35.091605],[128.960798,35.091916],[128.960759,35.092524]]}},{"type":"Feature","properties":{"line":"busan-1","ref":"1","name":"부산 도시철도 1호선: 다대포해수욕장 → 노포","color":"#F06A00"},"geometry":{"type":"LineString","coordinates":[[128.960759,35.092524],[128.960748,35.093017],[128.960739,35.09355],[128.960737,35.093684],[128.960735,35.093801],[128.960737,35.094052],[128.96073,35.094127],[128.960711,35.094477],[128.960693,35.095492],[128.960685,35.095967],[128.960672,35.096754],[128.960686,35.097591],[128.960715,35.098313]]}},{"type":"Feature","properties":{"line":"busan-1","ref":"1","name":"부산 도시철도 1호선: 다대포해수욕장 → 노포","color":"#F06A00"},"geometry":{"type":"LineString","coordinates":[[128.960715,35.098313],[128.960706,35.098503],[128.96074,35.098832],[128.960747,35.099429],[128.960755,35.100683],[128.960792,35.10157],[128.960803,35.102228],[128.960878,35.102702],[128.960969,35.103317],[128.961071,35.103887],[128.961178,35.104405],[128.961385,35.104848],[128.961736,35.105411],[128.962181,35.105819],[128.962315,35.105942],[128.962531,35.106065],[128.963063,35.106211],[128.963279,35.10623],[128.963517,35.106246],[128.964413,35.106239],[128.965618,35.106231],[128.966798,35.106172],[128.9674,35.106103],[128.967886,35.105993],[128.968554,35.105746],[128.968907,35.105534],[128.969488,35.105118],[128.969761,35.104925],[128.97022,35.104682],[128.972973,35.10374],[128.973824,35.103446],[128.9739,35.103421],[128.976123,35.102658],[128.976649,35.102474],[128.9774,35.102129],[128.979586,35.100739],[128.980057,35.1005],[128.980488,35.100353],[128.981512,35.100113],[128.983089,35.099798],[128.984244,35.099567],[128.986304,35.099142],[128.986827,35.099048],[128.987253,35.099047],[128.988136,35.099111],[128.988267,35.09912],[128.989315,35.099191],[128.989982,35.099241],[128.990408,35.099284],[128.992072,35.099766],[128.992836,35.099998],[128.993177,35.100101]]}},{"type":"Feature","properties":{"line":"busan-1","ref":"1","name":"부산 도시철도 1호선: 다대포해수욕장 → 노포","color":"#F06A00"},"geometry":{"type":"LineString","coordinates":[[128.993177,35.100101],[128.994234,35.100324],[128.994813,35.100543],[128.995744,35.100972],[128.998147,35.102144],[128.999555,35.10293],[128.999987,35.103156],[129.000076,35.103203],[129.000743,35.10358],[129.001969,35.104272],[129.002049,35.10432],[129.008788,35.10832],[129.009377,35.108846],[129.009683,35.109149],[129.01015,35.109645],[129.01066,35.110088],[129.01071,35.110123],[129.011121,35.110404],[129.011542,35.110619],[129.012045,35.11085],[129.012336,35.110984],[129.012677,35.111101],[129.014576,35.111771],[129.015312,35.11185],[129.015737,35.111827],[129.016137,35.111765],[129.016567,35.111589],[129.01695,35.111357],[129.017321,35.111018],[129.017759,35.11032],[129.017901,35.110079],[129.017942,35.110003],[129.018008,35.109855],[129.018234,35.10943],[129.018368,35.109246],[129.018953,35.108741],[129.019581,35.108232],[129.020004,35.107872],[129.020106,35.107745],[129.020187,35.107525],[129.020206,35.107354],[129.020207,35.107261],[129.020187,35.106923],[129.020121,35.10583],[129.02009,35.105377],[129.020083,35.105279],[129.020075,35.105199],[129.020004,35.103593],[129.019937,35.102386],[129.019793,35.100764],[129.019761,35.100403],[129.019705,35.0995],[129.019763,35.0992],[129.01992,35.098881],[129.020012,35.098737],[129.020157,35.098501],[129.02041,35.098172],[129.021839,35.096865],[129.022109,35.096686],[129.022354,35.09659],[129.023165,35.096538],[129.024055,35.096474],[129.024626,35.096604],[129.025494,35.096969],[129.026712,35.097285],[129.030157,35.098177],[129.030511,35.098251],[129.030664,35.098265],[129.03083,35.098248],[129.032363,35.097841],[129.033215,35.097651],[129.03334,35.097635],[129.033728,35.097607],[129.034075,35.097668],[129.034897,35.097886],[129.035279,35.097987],[129.035547,35.098096],[129.035866,35.098394],[129.036565,35.099184],[129.036618,35.099358],[129.036645,35.099494],[129.036528,35.101245],[129.036505,35.101686],[129.036409,35.103097],[129.036369,35.103842],[129.036323,35.104721],[129.036306,35.10499],[129.036248,35.106564],[129.036245,35.10684],[129.036285,35.107109],[129.036401,35.107485],[129.03679,35.108385],[129.037235,35.109338],[129.037715,35.110553],[129.038048,35.111523],[129.038179,35.111808],[129.03834,35.112199],[129.038694,35.112993],[129.039381,35.11449],[129.039657,35.115099],[129.039936,35.115599],[129.040609,35.116745],[129.041468,35.11825],[129.042374,35.119953],[129.04303,35.121181],[129.043654,35.122348],[129.044375,35.123647],[129.044997,35.124788],[129.045099,35.124963],[129.045265,35.125165],[129.045807,35.125705],[129.047503,35.127385],[129.049117,35.128959],[129.049342,35.129186],[129.049615,35.129461],[129.051735,35.131604],[129.053449,35.133362],[129.054395,35.134306],[129.054492,35.134405],[129.054972,35.134874],[129.055399,35.135278],[129.056048,35.135923],[129.056402,35.136282],[129.056869,35.136735],[129.057108,35.136896],[129.057541,35.137144],[129.057887,35.137355],[129.058378,35.137705],[129.058717,35.137958],[129.058956,35.138181],[129.059151,35.13843],[129.059316,35.138752],[129.059382,35.139055],[129.0594,35.139345],[129.059401,35.139946],[129.059374,35.140678],[129.059373,35.140964],[129.059369,35.142161],[129.059342,35.143336],[129.059283,35.144903],[129.059245,35.14724],[129.059253,35.147934],[129.059267,35.14867],[129.059205,35.152179],[129.059177,35.15446],[129.059156,35.155338]]}},{"type":"Feature","properties":{"line":"busan-1","ref":"1","name":"부산 도시철도 1호선: 다대포해수욕장 → 노포","color":"#F06A00"},"geometry":{"type":"LineString","coordinates":[[129.059156,35.155338],[129.059171,35.15554],[129.059151,35.156015],[129.059146,35.156822],[129.059157,35.157065],[129.059191,35.157319],[129.059267,35.157631],[129.059291,35.157698],[129.059344,35.157846],[129.059454,35.158043],[129.059526,35.158165],[129.059599,35.158289],[129.059688,35.158396],[129.059875,35.158644],[129.062347,35.161646],[129.062683,35.16213],[129.062995,35.162574],[129.064202,35.164095],[129.066037,35.166434],[129.067496,35.168292],[129.068262,35.169323],[129.068887,35.170049],[129.069212,35.170445],[129.069698,35.171048],[129.069983,35.171404],[129.070564,35.172127],[129.07135,35.173128],[129.072562,35.174589],[129.073185,35.175392],[129.073554,35.175932],[129.074263,35.176775],[129.074848,35.177538],[129.075242,35.178058],[129.075823,35.178786],[129.076441,35.179578],[129.076569,35.179727],[129.076996,35.180213],[129.077758,35.181152],[129.078116,35.18167],[129.078261,35.181852],[129.078671,35.182369],[129.078833,35.182561],[129.079361,35.183221],[129.080024,35.18405],[129.080373,35.184477],[129.080902,35.185125],[129.081073,35.185364],[129.081279,35.185642],[129.081358,35.185766],[129.081422,35.1859],[129.081451,35.186006],[129.081468,35.18607],[129.081486,35.186238],[129.081482,35.186388],[129.081431,35.18673],[129.081381,35.186955],[129.080684,35.18977],[129.080072,35.192149]]}},{"type":"Feature","properties":{"line":"busan-1","ref":"1","name":"부산 도시철도 1호선: 다대포해수욕장 → 노포","color":"#F06A00"},"geometry":{"type":"LineString","coordinates":[[129.080072,35.192149],[129.079898,35.193171],[129.079879,35.193604],[129.079873,35.194291],[129.079984,35.195033],[129.08001,35.195372],[129.080021,35.195555],[129.07998,35.196152],[129.079896,35.196628],[129.079705,35.1974]]}},{"type":"Feature","properties":{"line":"busan-1","ref":"1","name":"부산 도시철도 1호선: 다대포해수욕장 → 노포","color":"#F06A00"},"geometry":{"type":"LineString","coordinates":[[129.079705,35.1974],[129.079641,35.197635],[129.079268,35.199202],[129.079152,35.199647],[129.078963,35.200422],[129.078759,35.201257],[129.078667,35.201624],[129.078557,35.202127],[129.078539,35.20232],[129.078514,35.202535],[129.078498,35.202843],[129.078504,35.204029],[129.07851,35.204725],[129.078496,35.205747],[129.078485,35.206495],[129.078485,35.206547],[129.078471,35.207618],[129.078453,35.209269],[129.07845,35.209508],[129.078477,35.2098],[129.07852,35.210091],[129.078598,35.210474],[129.078686,35.210783],[129.078779,35.211023],[129.078925,35.211364],[129.079096,35.211674],[129.079244,35.211881],[129.079877,35.212845],[129.080231,35.213331],[129.080615,35.213961],[129.080837,35.214291],[129.080933,35.214418],[129.081089,35.214618],[129.081167,35.214706],[129.081318,35.214857],[129.081454,35.214994],[129.081695,35.215191],[129.081797,35.215268],[129.082076,35.215457],[129.082337,35.215629],[129.08261,35.215796],[129.082863,35.215949],[129.083109,35.216124],[129.083261,35.216248],[129.083404,35.216379],[129.083707,35.216681],[129.083932,35.21696],[129.084032,35.217086],[129.084584,35.217755],[129.085166,35.218461],[129.085732,35.219204],[129.085871,35.21939],[129.085939,35.219492],[129.085962,35.219532],[129.086531,35.220533],[129.08682,35.221043],[129.086843,35.221078],[129.087304,35.221913],[129.087623,35.222525],[129.087986,35.223184],[129.088261,35.223698],[129.088361,35.223885],[129.088517,35.224223],[129.08861,35.22444],[129.088763,35.224825],[129.088841,35.225057],[129.088871,35.225189],[129.088965,35.225561],[129.089047,35.226093],[129.089064,35.226295],[129.089088,35.226462],[129.089211,35.227345],[129.08935,35.228312],[129.089377,35.228531],[129.089394,35.228716],[129.089418,35.228878],[129.089418,35.229264],[129.089401,35.229461],[129.089358,35.229947],[129.08924,35.230582]]}},{"type":"Feature","properties":{"line":"busan-1","ref":"1","name":"부산 도시철도 1호선: 다대포해수욕장 → 노포","color":"#F06A00"},"geometry":{"type":"LineString","coordinates":[[129.08924,35.230582],[129.089237,35.230593],[129.08918,35.231017],[129.089158,35.231188],[129.08915,35.23133],[129.089147,35.231466],[129.089155,35.231654],[129.089171,35.231821],[129.089393,35.233182],[129.089474,35.2336],[129.089494,35.233768],[129.089495,35.233903],[129.089493,35.234115],[129.08948,35.234325],[129.089458,35.234527],[129.089396,35.234796],[129.089367,35.234901],[129.088934,35.235956],[129.088433,35.237131],[129.088342,35.237345],[129.088311,35.23745],[129.088251,35.237631],[129.088217,35.237771],[129.088182,35.237915],[129.088157,35.238036],[129.088131,35.23815],[129.088105,35.238332],[129.088097,35.238518],[129.088097,35.238649],[129.088105,35.23878],[129.088113,35.238838]]}},{"type":"Feature","properties":{"line":"busan-1","ref":"1","name":"부산 도시철도 1호선: 다대포해수욕장 → 노포","color":"#F06A00"},"geometry":{"type":"LineString","coordinates":[[129.088113,35.238838],[129.088114,35.238853],[129.088138,35.239057],[129.08823,35.239846],[129.088253,35.240011],[129.088342,35.240355],[129.088486,35.240732],[129.088594,35.240928],[129.088709,35.241124],[129.088835,35.241277],[129.088975,35.241458],[129.089187,35.241682],[129.089516,35.241994],[129.090031,35.242476],[129.090211,35.242657],[129.090335,35.242783],[129.090451,35.242935],[129.090585,35.243119],[129.090635,35.243196],[129.0907,35.2433],[129.090735,35.243368],[129.090815,35.243533],[129.090885,35.243684],[129.090917,35.243781],[129.090944,35.243866],[129.091022,35.244131],[129.091051,35.244355],[129.091075,35.244508],[129.091096,35.244708],[129.091145,35.245407],[129.091263,35.246484],[129.09128,35.2466],[129.091321,35.247575],[129.091382,35.248041]]}},{"type":"Feature","properties":{"line":"busan-1","ref":"1","name":"부산 도시철도 1호선: 다대포해수욕장 → 노포","color":"#F06A00"},"geometry":{"type":"LineString","coordinates":[[129.091382,35.248041],[129.091384,35.248122],[129.091386,35.248188],[129.091446,35.249147],[129.091526,35.250078],[129.091612,35.251173],[129.091722,35.252266],[129.091776,35.252932],[129.09178,35.253106],[129.091792,35.253512],[129.091773,35.25374],[129.091738,35.254058],[129.091708,35.254317]]}},{"type":"Feature","properties":{"line":"busan-1","ref":"1","name":"부산 도시철도 1호선: 다대포해수욕장 → 노포","color":"#F06A00"},"geometry":{"type":"LineString","coordinates":[[129.091708,35.254317],[129.091609,35.254996],[129.091493,35.255848],[129.091423,35.256545],[129.091403,35.256921]]}},{"type":"Feature","properties":{"line":"busan-1","ref":"1","name":"부산 도시철도 1호선: 다대포해수욕장 → 노포","color":"#F06A00"},"geometry":{"type":"LineString","coordinates":[[129.091403,35.256921],[129.091403,35.257064],[129.091404,35.257211],[129.091441,35.258373],[129.091463,35.259454],[129.09146,35.260354],[129.091699,35.26136],[129.092505,35.264811],[129.092579,35.265231],[129.09281,35.266549],[129.092834,35.267085],[129.09279,35.2723],[129.092764,35.273155],[129.092715,35.27475],[129.093052,35.276625],[129.093127,35.276882],[129.093178,35.277047],[129.093696,35.278816]]}},{"type":"Feature","properties":{"line":"busan-1","ref":"1","name":"부산 도시철도 1호선: 다대포해수욕장 → 노포","color":"#F06A00"},"geometry":{"type":"LineString","coordinates":[[129.093696,35.278816],[129.093872,35.279891],[129.093917,35.280169],[129.093955,35.280373],[129.093998,35.280566],[129.094047,35.280733],[129.094155,35.281093],[129.094386,35.281742],[129.094654,35.282654]]}},{"type":"Feature","properties":{"line":"busan-1","ref":"1","name":"부산 도시철도 1호선: 다대포해수욕장 → 노포","color":"#F06A00"},"geometry":{"type":"LineString","coordinates":[[129.094654,35.282654],[129.095122,35.283868]]}}]}