{"type":"FeatureCollection","features":[{"type":"Feature","properties":{"line":"daejeon-1","ref":"1","name":"대전 도시철도 1호선: 반석 → 판암","color":"#007448"},"geometry":{"type":"LineString","coordinates":[[127.315122,36.391485],[127.316208,36.390005],[127.317707,36.387937],[127.318457,36.386734],[127.31915,36.385415],[127.319389,36.384869],[127.319468,36.384428],[127.319533,36.383771],[127.319526,36.383271],[127.319374,36.382778],[127.318948,36.381918],[127.318205,36.380593],[127.31796,36.379976],[127.317888,36.379442],[127.317837,36.378218],[127.317859,36.375005],[127.317846,36.374117],[127.317834,36.373215],[127.317851,36.368043],[127.317851,36.366789],[127.317851,36.366656],[127.317834,36.365286],[127.317793,36.361784],[127.317772,36.361492],[127.317813,36.361266],[127.317864,36.360978],[127.317915,36.360748],[127.317984,36.360563],[127.318088,36.360377],[127.318256,36.360207],[127.318415,36.360074],[127.318626,36.359948],[127.318855,36.359831],[127.31911,36.359763],[127.319444,36.359714],[127.320775,36.359519],[127.32141,36.359389],[127.322865,36.358949],[127.327316,36.357661],[127.329975,36.356874],[127.33064,36.356689],[127.331713,36.35639],[127.335084,36.355441],[127.340505,36.353972],[127.341684,36.353688],[127.342757,36.353353],[127.346265,36.352382],[127.347405,36.352045],[127.348192,36.351853],[127.348769,36.35176],[127.349289,36.351708],[127.349765,36.351673],[127.350184,36.351714],[127.350487,36.35179],[127.351064,36.351929],[127.351447,36.352057],[127.351887,36.352255],[127.352342,36.352592],[127.352811,36.352894],[127.353641,36.353603],[127.354092,36.354169],[127.354586,36.354518],[127.355822,36.355389],[127.357497,36.356583],[127.35907,36.357606],[127.360218,36.358181],[127.360983,36.358414],[127.36213,36.358536],[127.362729,36.358536],[127.363718,36.35842],[127.364566,36.358297],[127.365118,36.358216],[127.367839,36.357873],[127.370693,36.357635],[127.372523,36.357617],[127.372792,36.357617],[127.377127,36.357622],[127.379807,36.357601],[127.381612,36.357583],[127.382684,36.357572],[127.383582,36.357547],[127.384195,36.35742],[127.384698,36.357317],[127.385239,36.357075],[127.385548,36.35684],[127.38584,36.356474],[127.386054,36.355935],[127.386235,36.355486],[127.386466,36.35411],[127.386509,36.353432],[127.386554,36.35146],[127.386548,36.35025],[127.386513,36.349461],[127.386427,36.349123],[127.386187,36.348832],[127.385664,36.348286],[127.385157,36.347837],[127.384814,36.347484],[127.384634,36.347215],[127.384556,36.346924],[127.384591,36.346392],[127.384607,36.34597],[127.384626,36.345447],[127.384642,36.3437],[127.384689,36.343491],[127.384739,36.343299],[127.384852,36.343137],[127.385079,36.342987],[127.385843,36.342703],[127.387749,36.342058],[127.388902,36.341569],[127.390784,36.34018],[127.393173,36.338206],[127.393196,36.338187],[127.396657,36.33525],[127.39927,36.333145],[127.402771,36.330185],[127.404516,36.32878],[127.405025,36.328369],[127.405874,36.327685],[127.410079,36.324248],[127.411834,36.322883],[127.412491,36.322375],[127.412779,36.322152],[127.412911,36.32205],[127.413094,36.321919],[127.413349,36.321711],[127.413469,36.32163],[127.413506,36.321609],[127.413545,36.321592],[127.413696,36.321535],[127.41401,36.321438],[127.414353,36.321403],[127.414705,36.321383],[127.414902,36.321417],[127.41519,36.32148],[127.415426,36.321552],[127.415859,36.321718],[127.416095,36.321863],[127.416825,36.32234],[127.417852,36.323259],[127.419607,36.324759],[127.419852,36.324968],[127.421239,36.32609],[127.422163,36.326986],[127.422408,36.327149],[127.425115,36.328265],[127.42592,36.328566],[127.427778,36.329259],[127.428469,36.329554],[127.432801,36.331114],[127.433379,36.331323],[127.435599,36.332117],[127.436202,36.332341],[127.436731,36.332519],[127.437135,36.332554],[127.437763,36.33256],[127.438081,36.332467],[127.439041,36.332164],[127.439957,36.331659],[127.440686,36.331298],[127.442647,36.329615],[127.442864,36.329409],[127.442887,36.329377],[127.443448,36.3283],[127.445126,36.325414],[127.44533,36.324188],[127.445279,36.323876],[127.445116,36.322955],[127.445065,36.322601],[127.445044,36.322223],[127.445167,36.321779],[127.445585,36.321368],[127.447086,36.320521],[127.448794,36.319624],[127.448932,36.319556],[127.452956,36.317585],[127.45417,36.317155],[127.45508,36.316959],[127.456694,36.316832],[127.457836,36.316804],[127.458537,36.316867],[127.459298,36.316993]]}},{"type":"Feature","properties":{"line":"daejeon-1","ref":"1","name":"대전 도시철도 1호선: 판암 → 반석","color":"#007448"},"geometry":{"type":"LineString","coordinates":[[127.45768,36.316962],[127.457231,36.316975],[127.454522,36.317187],[127.453889,36.317334],[127.453203,36.317575],[127.452098,36.318155],[127.448986,36.319634],[127.44702,36.320741],[127.445574,36.321556],[127.445274,36.321877],[127.445186,36.322235],[127.445195,36.322667],[127.445403,36.32338],[127.445487,36.324008],[127.445434,36.324444],[127.445247,36.325357],[127.444545,36.326643],[127.442939,36.329449],[127.440741,36.331334],[127.439137,36.332184],[127.437893,36.332642],[127.437329,36.332681],[127.436863,36.33265],[127.433349,36.331384],[127.428939,36.329785],[127.42892,36.329779],[127.428356,36.329605],[127.425894,36.328614],[127.424039,36.327873],[127.422674,36.327416],[127.422268,36.327238],[127.421131,36.326127],[127.419553,36.324821],[127.418554,36.323994],[127.416734,36.3224],[127.415723,36.321782],[127.415318,36.321652],[127.414708,36.321533],[127.414264,36.321549],[127.413616,36.321686],[127.413574,36.321698],[127.413536,36.321719],[127.412953,36.322102],[127.412639,36.322308],[127.412536,36.322402],[127.411167,36.323499],[127.405096,36.328411],[127.404526,36.328921],[127.40442,36.329009],[127.398736,36.333747],[127.393642,36.337944],[127.393298,36.338255],[127.389511,36.341367],[127.389318,36.341505],[127.388792,36.34182],[127.388316,36.341994]]}},{"type":"Feature","properties":{"line":"daejeon-1","ref":"1","name":"대전 도시철도 1호선: 판암 → 반석","color":"#007448"},"geometry":{"type":"LineString","coordinates":[[127.388316,36.341994],[127.387254,36.342411],[127.385442,36.34293],[127.385078,36.343148],[127.384917,36.343291],[127.384844,36.34344],[127.38479,36.343588],[127.38477,36.343706],[127.384719,36.346129],[127.384699,36.346922],[127.384784,36.347234],[127.384909,36.347442],[127.385306,36.347835],[127.385681,36.348159],[127.38598,36.34845],[127.386246,36.34876],[127.386476,36.349104],[127.386566,36.349458],[127.386594,36.350237],[127.386625,36.351201],[127.386626,36.351484],[127.38663,36.353669],[127.386342,36.355595],[127.385986,36.356419],[127.385571,36.357008],[127.384741,36.357447],[127.383635,36.35762],[127.381613,36.35763],[127.379877,36.357673],[127.379019,36.35768],[127.374804,36.357738],[127.374747,36.357739],[127.37413,36.357728],[127.373908,36.357723],[127.372795,36.357701],[127.371219,36.357716],[127.368222,36.357919],[127.364575,36.358373],[127.364181,36.358424],[127.362949,36.358582],[127.362357,36.358604],[127.362056,36.358594],[127.361658,36.358555],[127.361052,36.358473],[127.360635,36.358394],[127.36031,36.358296],[127.359847,36.358117],[127.359117,36.357756],[127.358052,36.357119],[127.354497,36.354606],[127.353948,36.354153],[127.353493,36.353662],[127.353027,36.353259],[127.352533,36.352865],[127.35176,36.352338],[127.351197,36.352134],[127.350431,36.351917],[127.34982,36.351832],[127.348821,36.351896],[127.348109,36.352062],[127.341702,36.353733],[127.341527,36.353783],[127.340186,36.354168],[127.338108,36.354722],[127.336791,36.355073],[127.336539,36.355136],[127.33604,36.355261],[127.335564,36.355422],[127.332247,36.356325],[127.330655,36.356757],[127.321446,36.359456],[127.319446,36.359813],[127.319166,36.359862],[127.318885,36.359936],[127.318675,36.36003],[127.318512,36.360145],[127.318399,36.360282],[127.318252,36.360474],[127.318153,36.360634],[127.31809,36.360859],[127.317985,36.361192],[127.31792,36.361523],[127.317922,36.361779],[127.31796,36.365791],[127.317938,36.366781],[127.317981,36.367892],[127.318004,36.37007],[127.317974,36.37414],[127.317993,36.374744],[127.317994,36.379135],[127.318079,36.379895],[127.318315,36.380527],[127.3194,36.382526],[127.319574,36.383116],[127.319648,36.383425],[127.319577,36.384397],[127.319383,36.385224],[127.318418,36.387023],[127.317883,36.387909],[127.317664,36.388199],[127.314404,36.392637]]}}]}