{"type":"FeatureCollection","features":[{"type":"Feature","properties":{"line":"shinbundang","ref":"신분당","name":"수도권 전철 신분당선: 신사 → 광교","color":"#D31145"},"geometry":{"type":"LineString","coordinates":[[127.01966,37.515752],[127.019753,37.515455],[127.020007,37.514614],[127.020454,37.512986],[127.021896,37.509947],[127.023165,37.50724],[127.023877,37.505689],[127.024266,37.504958],[127.024916,37.503571],[127.026142,37.501036],[127.026792,37.499641]]}},{"type":"Feature","properties":{"line":"shinbundang","ref":"신분당","name":"수도권 전철 신분당선: 신사 → 광교","color":"#D31145"},"geometry":{"type":"LineString","coordinates":[[127.026792,37.499641],[127.027344,37.498497],[127.0277,37.497757],[127.027818,37.497494],[127.027993,37.497125],[127.028364,37.49632],[127.02864,37.495712],[127.029054,37.494853],[127.029838,37.493227],[127.030377,37.492072],[127.030834,37.491099],[127.031546,37.489618],[127.031852,37.488986],[127.032383,37.487881],[127.032777,37.487048],[127.03362,37.485286],[127.033684,37.485161],[127.033858,37.484818],[127.033956,37.48467],[127.034101,37.484422],[127.034688,37.483815],[127.034995,37.483528],[127.03597,37.482585],[127.036049,37.482517],[127.036197,37.482392],[127.036632,37.481986],[127.037046,37.481529],[127.037338,37.4812],[127.037606,37.480888],[127.037859,37.48041],[127.038018,37.480091],[127.038161,37.479755],[127.038256,37.479547],[127.038421,37.479067],[127.038503,37.478583],[127.038558,37.478034],[127.038523,37.476982],[127.038456,37.476064],[127.038312,37.475343],[127.038264,37.475019],[127.03819,37.474432],[127.03814,37.473929],[127.038097,37.473056],[127.03825,37.470972],[127.038359,37.470143],[127.038813,37.46622],[127.038825,37.466127],[127.03886,37.46604],[127.038921,37.465964],[127.038988,37.465888],[127.040783,37.463865],[127.050639,37.452701],[127.051578,37.451694],[127.053019,37.450178],[127.053117,37.450074]]}},{"type":"Feature","properties":{"line":"shinbundang","ref":"신분당","name":"수도권 전철 신분당선: 신사 → 광교","color":"#D31145"},"geometry":{"type":"LineString","coordinates":[[127.053117,37.450074],[127.05456,37.4484],[127.054567,37.448392],[127.05749,37.445248],[127.061879,37.43936],[127.074307,37.426621],[127.07493,37.426178],[127.079835,37.422431],[127.082751,37.420212],[127.085273,37.418566],[127.091268,37.415296],[127.094874,37.41333],[127.108518,37.40683],[127.109106,37.406464],[127.109678,37.406007],[127.110129,37.405513],[127.110496,37.405025],[127.110522,37.404984],[127.110525,37.404977],[127.110875,37.404161],[127.110876,37.404001],[127.111035,37.403374],[127.111103,37.40278],[127.111122,37.402421],[127.111176,37.398506],[127.111176,37.395397],[127.111179,37.395062],[127.111181,37.394764],[127.111187,37.394364],[127.111185,37.394118],[127.111278,37.39129],[127.111237,37.384685],[127.111221,37.38437],[127.111189,37.384067],[127.111157,37.383884],[127.111117,37.383675],[127.111047,37.383437],[127.109608,37.380316],[127.109231,37.379329],[127.108926,37.378405],[127.108628,37.377256],[127.108522,37.376666],[127.108436,37.375916],[127.108433,37.367565],[127.108433,37.367368]]}},{"type":"Feature","properties":{"line":"shinbundang","ref":"신분당","name":"수도권 전철 신분당선: 신사 → 광교","color":"#D31145"},"geometry":{"type":"LineString","coordinates":[[127.108433,37.367368],[127.108507,37.364438],[127.108516,37.364101],[127.10858,37.36217],[127.108616,37.361101],[127.10881,37.35531],[127.108838,37.353908],[127.108852,37.353438],[127.108868,37.352937],[127.108873,37.352202],[127.108914,37.350068],[127.108914,37.349988],[127.108917,37.349882],[127.108936,37.347466],[127.108968,37.34584],[127.108946,37.345295],[127.108863,37.344994],[127.108834,37.344811],[127.108778,37.344646],[127.108688,37.344484],[127.108549,37.344293],[127.1084,37.344088],[127.108185,37.343878],[127.107897,37.343629],[127.107618,37.343439],[127.107356,37.343299],[127.107098,37.343196],[127.106394,37.342947],[127.106023,37.342843],[127.10543,37.342715],[127.104603,37.342507],[127.104354,37.342426],[127.104208,37.342365],[127.103947,37.342231],[127.103767,37.342115],[127.103628,37.342],[127.103434,37.34184],[127.103262,37.341638],[127.103087,37.341434],[127.10301,37.34128],[127.102972,37.341121],[127.102966,37.34075],[127.102944,37.340225],[127.102899,37.339288],[127.102889,37.339065],[127.102848,37.337877],[127.102834,37.33294],[127.102725,37.328938],[127.102672,37.328273],[127.102457,37.327667],[127.10221,37.327241],[127.101974,37.326993],[127.101686,37.32677],[127.101588,37.326695],[127.100773,37.3262],[127.098949,37.325108],[127.096349,37.323455],[127.096302,37.323425],[127.096134,37.323318],[127.095658,37.323022],[127.094757,37.32249],[127.086911,37.318171],[127.085388,37.317591],[127.083467,37.316968],[127.082813,37.316789],[127.082384,37.31655],[127.082051,37.31614],[127.081697,37.315552],[127.081373,37.31505],[127.080539,37.313755],[127.080311,37.313414],[127.080072,37.313216],[127.079893,37.313105],[127.079464,37.312849],[127.078945,37.312561],[127.078562,37.31233],[127.077489,37.31167],[127.077234,37.311527],[127.077063,37.31134],[127.076923,37.311075],[127.074913,37.306633],[127.074903,37.306458],[127.07489,37.306308],[127.074901,37.306137],[127.07489,37.305125],[127.074901,37.304812],[127.074779,37.304466],[127.074628,37.304095],[127.074482,37.303803],[127.07431,37.30354],[127.074135,37.303313],[127.073927,37.303103],[127.07362,37.302844],[127.070454,37.30065],[127.070338,37.300511],[127.07021,37.300289],[127.069337,37.297414],[127.068495,37.294652],[127.068341,37.29406],[127.068293,37.293867],[127.068228,37.293676],[127.068145,37.293478],[127.068062,37.29333],[127.067939,37.293168],[127.067698,37.292911],[127.067514,37.292766],[127.067353,37.292663],[127.067255,37.2926],[127.066977,37.292468],[127.066736,37.29237],[127.065035,37.29166],[127.064387,37.291414],[127.063491,37.291034],[127.063411,37.291004],[127.063303,37.29095],[127.06318,37.290885],[127.063046,37.2908],[127.062794,37.290616],[127.062579,37.290441],[127.062107,37.290027],[127.057753,37.286467],[127.057495,37.286261],[127.05683,37.285927],[127.056517,37.285843],[127.056166,37.2858],[127.055685,37.285937],[127.055217,37.286112],[127.054706,37.286343],[127.053467,37.28707],[127.053124,37.287281],[127.051499,37.288547],[127.049281,37.290167],[127.048711,37.290703],[127.048489,37.290937],[127.048415,37.291015],[127.048273,37.291248],[127.048187,37.291487],[127.048144,37.291828],[127.048157,37.292148],[127.048176,37.292436],[127.04823,37.292733],[127.048299,37.293027],[127.048423,37.293347],[127.048637,37.293706],[127.048852,37.29403],[127.048981,37.29432],[127.049768,37.296838],[127.049817,37.297073],[127.04983,37.297319],[127.049801,37.297512],[127.04975,37.297745],[127.049614,37.29802],[127.049203,37.298645]]}},{"type":"Feature","properties":{"line":"shinbundang","ref":"신분당","name":"수도권 전철 신분당선: 신사 → 광교","color":"#D31145"},"geometry":{"type":"LineString","coordinates":[[127.049203,37.298645],[127.049106,37.298764],[127.048788,37.299061],[127.048066,37.299838]]}},{"type":"Feature","properties":{"line":"shinbundang","ref":"신분당","name":"수도권 전철 신분당선: 신사 → 광교","color":"#D31145"},"geometry":{"type":"LineString","coordinates":[[127.048066,37.299838],[127.047958,37.299935],[127.047851,37.30003]]}},{"type":"Feature","properties":{"line":"shinbundang","ref":"신분당","name":"수도권 전철 신분당선: 신사 → 광교","color":"#D31145"},"geometry":{"type":"LineString","coordinates":[[127.047851,37.30003],[127.047552,37.300256],[127.047469,37.300318],[127.046854,37.30073],[127.046484,37.300928],[127.045457,37.301496]]}},{"type":"Feature","properties":{"line":"shinbundang","ref":"신분당","name":"수도권 전철 신분당선: 신사 → 광교","color":"#D31145"},"geometry":{"type":"LineString","coordinates":[[127.045457,37.301496],[127.045268,37.301593],[127.04523,37.301612],[127.045135,37.301661]]}},{"type":"Feature","properties":{"line":"shinbundang","ref":"신분당","name":"수도권 전철 신분당선: 신사 → 광교","color":"#D31145"},"geometry":{"type":"LineString","coordinates":[[127.045135,37.301661],[127.044846,37.301809],[127.043671,37.302411],[127.043522,37.302481]]}},{"type":"Feature","properties":{"line":"shinbundang","ref":"신분당","name":"수도권 전철 신분당선: 광교 → 신사","color":"#D31145"},"geometry":{"type":"LineString","coordinates":[[127.044758,37.301872],[127.044983,37.301761],[127.045148,37.301679]]}},{"type":"Feature","properties":{"line":"shinbundang","ref":"신분당","name":"수도권 전철 신분당선: 광교 → 신사","color":"#D31145"},"geometry":{"type":"LineString","coordinates":[[127.045148,37.301679],[127.045468,37.301509]]}},{"type":"Feature","properties":{"line":"shinbundang","ref":"신분당","name":"수도권 전철 신분당선: 광교 → 신사","color":"#D31145"},"geometry":{"type":"LineString","coordinates":[[127.045468,37.301509],[127.046007,37.301227],[127.046538,37.300922],[127.046719,37.300822],[127.046858,37.300752],[127.047292,37.300471],[127.047473,37.300348],[127.047723,37.300155],[127.04787,37.300041]]}},{"type":"Feature","properties":{"line":"shinbundang","ref":"신분당","name":"수도권 전철 신분당선: 광교 → 신사","color":"#D31145"},"geometry":{"type":"LineString","coordinates":[[127.04787,37.300041],[127.048083,37.299847]]}},{"type":"Feature","properties":{"line":"shinbundang","ref":"신분당","name":"수도권 전철 신분당선: 광교 → 신사","color":"#D31145"},"geometry":{"type":"LineString","coordinates":[[127.048083,37.299847],[127.048498,37.299424],[127.048829,37.299085],[127.049246,37.298671]]}},{"type":"Feature","properties":{"line":"shinbundang","ref":"신분당","name":"수도권 전철 신분당선: 광교 → 신사","color":"#D31145"},"geometry":{"type":"LineString","coordinates":[[127.049246,37.298671],[127.049682,37.298031],[127.049808,37.297743],[127.049879,37.297489],[127.049896,37.297302],[127.049858,37.29704],[127.049805,37.296818],[127.049304,37.295133],[127.048913,37.293981],[127.048478,37.293286],[127.048291,37.292669],[127.048255,37.292332],[127.048235,37.291598],[127.048319,37.291372],[127.048495,37.290989],[127.049145,37.290394],[127.049487,37.290134],[127.050957,37.289018],[127.051535,37.288574],[127.052404,37.287979],[127.05361,37.287081],[127.054123,37.286707],[127.05472,37.286353],[127.0552,37.286136],[127.055682,37.285967],[127.055981,37.285907],[127.056262,37.285891],[127.056599,37.285976],[127.056921,37.286069],[127.057395,37.286344],[127.058069,37.286845],[127.059223,37.287799],[127.061807,37.289903],[127.062705,37.290677],[127.062975,37.290866],[127.063419,37.291103],[127.065015,37.291722],[127.066894,37.292533],[127.067469,37.292836],[127.067906,37.293247],[127.068173,37.293692],[127.068935,37.296518],[127.069239,37.297444],[127.069669,37.2989],[127.069821,37.2994],[127.070131,37.300274],[127.070346,37.300651],[127.071988,37.301773],[127.073611,37.302937],[127.074167,37.303468],[127.07465,37.304306],[127.074841,37.304869],[127.074809,37.305991],[127.074804,37.306405],[127.074821,37.306665],[127.07488,37.306818],[127.07614,37.309604],[127.076878,37.311137],[127.076959,37.311342],[127.077149,37.311552],[127.077411,37.311715],[127.078441,37.312318],[127.079769,37.313082],[127.080253,37.313451],[127.080496,37.313755],[127.080678,37.314059],[127.081175,37.314892],[127.081922,37.316077],[127.082314,37.316583],[127.082812,37.316847],[127.086861,37.318214],[127.088346,37.319014],[127.089785,37.319799],[127.094467,37.322403],[127.094685,37.322541],[127.095529,37.323032],[127.096389,37.323553],[127.100322,37.32598],[127.100713,37.326227],[127.101597,37.32674],[127.101907,37.326993],[127.10214,37.327253],[127.102604,37.328276],[127.102689,37.328964],[127.102767,37.332243],[127.102798,37.332948],[127.102766,37.334194],[127.102769,37.336757],[127.102771,37.337878],[127.102863,37.339064],[127.102858,37.339903],[127.102897,37.340772],[127.102909,37.341162],[127.102963,37.341326],[127.103056,37.341473],[127.10324,37.341677],[127.103615,37.342059],[127.103912,37.342265],[127.104301,37.342451],[127.104764,37.342587],[127.105572,37.342775],[127.10634,37.34297],[127.107519,37.343443],[127.107863,37.343654],[127.108266,37.344013],[127.108598,37.344443],[127.108721,37.344666],[127.108793,37.344878],[127.108874,37.345248],[127.108897,37.345614],[127.108909,37.345842],[127.10891,37.34627],[127.108881,37.347465],[127.108875,37.348526],[127.108873,37.349878],[127.108874,37.349986],[127.108848,37.350566],[127.108843,37.351204],[127.108819,37.352171],[127.108803,37.353188],[127.108775,37.354123],[127.108725,37.355276],[127.108686,37.356567],[127.108671,37.357844],[127.108655,37.358446],[127.108632,37.359344],[127.108585,37.360884],[127.108491,37.36356],[127.108438,37.36566],[127.108437,37.366255],[127.108407,37.36737]]}},{"type":"Feature","properties":{"line":"shinbundang","ref":"신분당","name":"수도권 전철 신분당선: 광교 → 신사","color":"#D31145"},"geometry":{"type":"LineString","coordinates":[[127.108407,37.36737],[127.10839,37.367859],[127.108369,37.369098],[127.10838,37.371007],[127.108359,37.37273],[127.108359,37.374575],[127.108329,37.375774],[127.108543,37.37737],[127.109118,37.379205],[127.109822,37.381047],[127.110904,37.383359],[127.111075,37.38417],[127.111152,37.38666],[127.111127,37.389626],[127.111152,37.391419],[127.111138,37.393344],[127.111122,37.394354],[127.111117,37.394632],[127.11112,37.39541],[127.111099,37.397534],[127.111086,37.399161],[127.111056,37.401066],[127.111044,37.402464],[127.110995,37.403221],[127.110791,37.404134],[127.110646,37.404537],[127.11043,37.405022],[127.109589,37.405945],[127.108625,37.406657],[127.1072,37.407353],[127.105294,37.40828],[127.102419,37.409671],[127.099458,37.411062],[127.094998,37.413031],[127.086871,37.41749],[127.084691,37.41874],[127.081414,37.420953],[127.074327,37.426341],[127.070343,37.430422],[127.066015,37.434798],[127.064959,37.435866],[127.061682,37.439121],[127.057333,37.445178],[127.055795,37.446975],[127.054516,37.448339],[127.054407,37.448454],[127.052978,37.449954]]}},{"type":"Feature","properties":{"line":"shinbundang","ref":"신분당","name":"수도권 전철 신분당선: 광교 → 신사","color":"#D31145"},"geometry":{"type":"LineString","coordinates":[[127.052978,37.449954],[127.051725,37.451367],[127.050542,37.452643],[127.049279,37.454118],[127.04807,37.455457],[127.046122,37.457678],[127.042741,37.461494],[127.041169,37.463223],[127.03896,37.465757],[127.038772,37.466041],[127.038651,37.466528],[127.038473,37.468354],[127.038272,37.470128],[127.038154,37.471034],[127.03795,37.473096],[127.038026,37.474007],[127.038345,37.476017],[127.038417,37.477936],[127.038345,37.478853],[127.037884,37.480096],[127.037436,37.480949],[127.035227,37.483156],[127.034639,37.483758],[127.034042,37.484378],[127.033819,37.484688],[127.033266,37.485863],[127.032114,37.488209],[127.030641,37.491262],[127.029193,37.494395],[127.029082,37.494635],[127.027935,37.497112]]}},{"type":"Feature","properties":{"line":"shinbundang","ref":"신분당","name":"수도권 전철 신분당선: 광교 → 신사","color":"#D31145"},"geometry":{"type":"LineString","coordinates":[[127.027935,37.497112],[127.027752,37.497491],[127.027716,37.497567],[127.02763,37.497745],[127.026775,37.499519],[127.026716,37.49964]]}},{"type":"Feature","properties":{"line":"shinbundang","ref":"신분당","name":"수도권 전철 신분당선: 광교 → 신사","color":"#D31145"},"geometry":{"type":"LineString","coordinates":[[127.026716,37.49964],[127.026635,37.499812],[127.026355,37.5004],[127.02489,37.503563],[127.024164,37.505008],[127.022123,37.509282],[127.021815,37.509927],[127.020314,37.513157],[127.019898,37.5146],[127.019647,37.515516],[127.019588,37.515728]]}}]}