{"type":"FeatureCollection","features":[{"type":"Feature","properties":{"line":"busan-4","ref":"4","name":"부산 도시철도 4호선","color":"#2178C4"},"geometry":{"type":"LineString","coordinates":[[129.068789,35.206521],[129.068999,35.206834],[129.069212,35.20717],[129.069366,35.207412],[129.069483,35.207542],[129.069564,35.2076],[129.069662,35.207658],[129.069773,35.2077],[129.06988,35.207724],[129.07,35.207736],[129.070137,35.207724],[129.070306,35.207696],[129.070904,35.207422],[129.071818,35.207025],[129.072527,35.206729],[129.077297,35.204722],[129.077795,35.204511],[129.078328,35.204272],[129.079587,35.203737],[129.081145,35.203096],[129.082619,35.202329],[129.083112,35.202059],[129.08341,35.201929],[129.083677,35.201817],[129.083879,35.201725],[129.084421,35.201606],[129.085094,35.20149],[129.086761,35.201182],[129.088019,35.200956],[129.088978,35.200779],[129.088997,35.200774],[129.089375,35.200689],[129.08965,35.200603],[129.090224,35.20042],[129.090823,35.200188],[129.092032,35.199809],[129.093134,35.199394],[129.093801,35.199153],[129.094876,35.198807],[129.095218,35.198696],[129.09548,35.198621],[129.095717,35.198544],[129.096072,35.198531],[129.096453,35.198599],[129.096659,35.198704],[129.096865,35.198816],[129.097047,35.198972],[129.097234,35.199237],[129.097569,35.199724],[129.098271,35.201087],[129.09835,35.201241],[129.098791,35.202057],[129.098833,35.202135],[129.099183,35.202481],[129.099687,35.202963],[129.100266,35.203428],[129.100577,35.203656],[129.100813,35.203901],[129.10136,35.204769],[129.101762,35.205379],[129.102148,35.206041],[129.102535,35.206415],[129.103066,35.206837],[129.103377,35.207287],[129.103481,35.20797],[129.103473,35.208656],[129.103518,35.209258],[129.103748,35.209589],[129.104076,35.209803],[129.104558,35.210009],[129.105059,35.21027],[129.105526,35.21076],[129.106414,35.211774],[129.107524,35.213023],[129.108084,35.213646],[129.108409,35.213948],[129.108638,35.214092],[129.109852,35.21433],[129.111041,35.214547],[129.111585,35.21465],[129.112169,35.214785],[129.113735,35.215293],[129.114701,35.215626],[129.115238,35.215792],[129.116611,35.21631],[129.11822,35.216818],[129.119164,35.217064],[129.120404,35.217243],[129.122318,35.217554],[129.123252,35.217686],[129.123515,35.217716],[129.123837,35.217769],[129.125301,35.217975]]}},{"type":"Feature","properties":{"line":"busan-4","ref":"4","name":"부산 도시철도 4호선","color":"#2178C4"},"geometry":{"type":"LineString","coordinates":[[129.125301,35.217975],[129.127271,35.21819],[129.128837,35.218453],[129.129481,35.218558],[129.129888,35.218558],[129.130253,35.218505],[129.130977,35.218365],[129.132681,35.218067],[129.133459,35.217927],[129.134039,35.217879],[129.134683,35.217894],[129.135653,35.218]]}},{"type":"Feature","properties":{"line":"busan-4","ref":"4","name":"부산 도시철도 4호선","color":"#2178C4"},"geometry":{"type":"LineString","coordinates":[[129.135653,35.218],[129.136233,35.217995],[129.136857,35.218064],[129.138252,35.21822]]}},{"type":"Feature","properties":{"line":"busan-4","ref":"4","name":"부산 도시철도 4호선","color":"#2178C4"},"geometry":{"type":"LineString","coordinates":[[129.138252,35.21822],[129.138836,35.218207],[129.139909,35.218243],[129.140328,35.218251],[129.140671,35.218295],[129.141046,35.218356],[129.141379,35.218452],[129.141712,35.218593],[129.142033,35.218759],[129.142302,35.218935],[129.142553,35.21915],[129.142795,35.219399],[129.142978,35.219636],[129.143186,35.219956],[129.143375,35.220346],[129.143572,35.220701],[129.143797,35.221008],[129.144044,35.221218],[129.144329,35.221415],[129.144933,35.221796],[129.145195,35.222039],[129.145399,35.222288],[129.145563,35.222677],[129.145675,35.223068],[129.145825,35.223918],[129.145997,35.22511],[129.146092,35.225648],[129.146333,35.226707],[129.146958,35.22853],[129.147068,35.228783],[129.147204,35.229042],[129.147411,35.229285],[129.14769,35.229495],[129.148047,35.229691],[129.148428,35.229857],[129.149955,35.230317],[129.150281,35.230448],[129.150434,35.230538],[129.150992,35.230889],[129.151257,35.23104],[129.151981,35.231429],[129.152297,35.231596],[129.153152,35.232091],[129.153936,35.232522],[129.154758,35.233054],[129.155606,35.233553],[129.15597,35.23379],[129.156185,35.234],[129.156425,35.234259],[129.156758,35.234636],[129.157058,35.234951],[129.157316,35.235162],[129.157655,35.235411],[129.157998,35.235603],[129.158406,35.235752],[129.158792,35.235849],[129.159232,35.235928],[129.159961,35.236024],[129.16047,35.236126],[129.161539,35.236261],[129.162461,35.236357],[129.162847,35.236357],[129.16333,35.236331],[129.1648,35.236155],[129.166264,35.235985],[129.166667,35.235954],[129.167021,35.235954],[129.167751,35.235998],[129.168169,35.236077],[129.16877,35.236226],[129.169401,35.2364]]}},{"type":"Feature","properties":{"line":"busan-4","ref":"4","name":"부산 도시철도 4호선","color":"#2178C4"},"geometry":{"type":"LineString","coordinates":[[129.169401,35.2364],[129.169892,35.236526],[129.170144,35.236625],[129.170431,35.23676],[129.170838,35.236945],[129.171323,35.237184],[129.171733,35.237377],[129.172314,35.237645],[129.173108,35.237999],[129.173667,35.23826],[129.17424,35.238529],[129.17448,35.238647],[129.17465,35.238757],[129.174792,35.238867],[129.174916,35.238976],[129.175045,35.239111],[129.175218,35.23931],[129.1754,35.239529],[129.175544,35.239689]]}},{"type":"Feature","properties":{"line":"busan-4","ref":"4","name":"부산 도시철도 4호선","color":"#2178C4"},"geometry":{"type":"LineString","coordinates":[[129.169401,35.2364],[129.169863,35.236572],[129.169885,35.236581],[129.170109,35.236675],[129.1704,35.236818],[129.171263,35.237255],[129.171686,35.237445],[129.172496,35.237808],[129.173661,35.238349],[129.174032,35.238516],[129.174272,35.238635],[129.17449,35.238747],[129.174604,35.238824],[129.174738,35.238925],[129.17491,35.239075],[129.175059,35.23923],[129.17523,35.239428],[129.17549,35.239722]]}},{"type":"Feature","properties":{"line":"busan-4","ref":"4","name":"부산 도시철도 4호선","color":"#2178C4"},"geometry":{"type":"LineString","coordinates":[[129.138252,35.21822],[129.137998,35.218226],[129.137519,35.218244],[129.136842,35.218172],[129.136162,35.2181],[129.136033,35.218075],[129.135653,35.218]]}}]}