{"type":"FeatureCollection","features":[{"type":"Feature","properties":{"line":"gwangju-1","ref":"1","name":"광주 도시철도 1호선: 평동 → 녹동","color":"#009088"},"geometry":{"type":"LineString","coordinates":[[126.7704,35.124835],[126.770611,35.124865],[126.770728,35.124878],[126.774647,35.125227],[126.775367,35.125344],[126.776006,35.125512],[126.77673,35.125763],[126.777384,35.126069],[126.781847,35.128411],[126.782104,35.128555]]}},{"type":"Feature","properties":{"line":"gwangju-1","ref":"1","name":"광주 도시철도 1호선: 평동 → 녹동","color":"#009088"},"geometry":{"type":"LineString","coordinates":[[126.782104,35.128555],[126.785052,35.130124],[126.785116,35.130159]]}},{"type":"Feature","properties":{"line":"gwangju-1","ref":"1","name":"광주 도시철도 1호선: 평동 → 녹동","color":"#009088"},"geometry":{"type":"LineString","coordinates":[[126.785116,35.130159],[126.786154,35.130714],[126.786902,35.131122],[126.787612,35.131573],[126.787935,35.131815],[126.78836,35.132177],[126.788768,35.132579],[126.789038,35.132871],[126.789325,35.133303],[126.789768,35.134197],[126.790549,35.135517],[126.791382,35.137135],[126.791684,35.137626],[126.792418,35.138755],[126.79283,35.139381],[126.793461,35.140206],[126.794639,35.141507],[126.795503,35.14234],[126.796105,35.142844],[126.796831,35.143154],[126.797607,35.143317],[126.799245,35.143533],[126.799525,35.14355],[126.799739,35.143558],[126.800167,35.143582],[126.802515,35.143678],[126.803459,35.143766],[126.806892,35.144051],[126.809757,35.144152],[126.811434,35.144115],[126.811701,35.144072],[126.815363,35.143511],[126.818364,35.14308],[126.821446,35.142612],[126.82456,35.142025],[126.8262,35.141642],[126.828522,35.141033],[126.830794,35.14038],[126.832298,35.140084],[126.832962,35.140062],[126.833737,35.140122],[126.8343,35.140169],[126.834785,35.140259],[126.836013,35.140599],[126.83677,35.140917],[126.839018,35.14201],[126.841362,35.143175],[126.84343,35.144202],[126.846812,35.14584],[126.848662,35.146717],[126.849621,35.147176],[126.850472,35.147593],[126.851779,35.148252],[126.853168,35.148932],[126.853913,35.149269],[126.85433,35.149332],[126.855414,35.149713],[126.856185,35.149917],[126.858711,35.150363],[126.860646,35.150736],[126.864558,35.151261],[126.869576,35.151426],[126.871725,35.151497],[126.875182,35.151633],[126.876863,35.151887],[126.878647,35.152175],[126.882181,35.152897],[126.884135,35.153187],[126.88491,35.153302],[126.885979,35.153472],[126.886352,35.153499],[126.886989,35.153406],[126.887363,35.153258],[126.887798,35.152938],[126.888805,35.151999],[126.889925,35.150974],[126.890341,35.150757],[126.891006,35.15055],[126.891642,35.150518],[126.892345,35.15063],[126.895118,35.151518],[126.895561,35.151671],[126.896409,35.151964],[126.899114,35.152849],[126.900028,35.153179],[126.90182,35.154471],[126.902156,35.154714],[126.903488,35.155878],[126.904384,35.156377],[126.905019,35.156503],[126.905362,35.156496],[126.905766,35.156356],[126.906272,35.15618],[126.907277,35.155507],[126.909993,35.153736],[126.910832,35.153152],[126.912934,35.151721],[126.914538,35.150688],[126.914967,35.150411],[126.916393,35.149478],[126.918121,35.148327],[126.918541,35.148022],[126.918758,35.147873],[126.919173,35.147478],[126.919483,35.147126],[126.919643,35.146904],[126.91979,35.146671],[126.919931,35.146405],[126.920194,35.145715],[126.920278,35.145316],[126.920305,35.144959],[126.920305,35.144494],[126.920304,35.143197],[126.920321,35.142853],[126.9204,35.142507],[126.920683,35.141904],[126.921275,35.141075],[126.922236,35.140008],[126.922816,35.139364],[126.922938,35.139227],[126.923482,35.138529],[126.9238,35.138205],[126.925589,35.136451],[126.927211,35.134429],[126.928095,35.133169],[126.928124,35.133112],[126.928563,35.132232],[126.929135,35.13102],[126.929222,35.130771],[126.930065,35.128855],[126.931127,35.126485],[126.931745,35.124913],[126.932166,35.123624],[126.932277,35.123284],[126.932972,35.121354],[126.933316,35.120308],[126.933608,35.118588],[126.934389,35.116688],[126.934732,35.115889]]}},{"type":"Feature","properties":{"line":"gwangju-1","ref":"1","name":"광주 도시철도 1호선: 평동 → 녹동","color":"#009088"},"geometry":{"type":"LineString","coordinates":[[126.934732,35.115889],[126.934881,35.115577],[126.935166,35.114836],[126.935225,35.114655],[126.935263,35.114519]]}},{"type":"Feature","properties":{"line":"gwangju-1","ref":"1","name":"광주 도시철도 1호선: 평동 → 녹동","color":"#009088"},"geometry":{"type":"LineString","coordinates":[[126.935263,35.114519],[126.935309,35.114053],[126.935288,35.113576]]}},{"type":"Feature","properties":{"line":"gwangju-1","ref":"1","name":"광주 도시철도 1호선: 평동 → 녹동","color":"#009088"},"geometry":{"type":"LineString","coordinates":[[126.935288,35.113576],[126.935283,35.113498],[126.935285,35.113216],[126.935255,35.112613],[126.935206,35.111527],[126.935184,35.111186]]}},{"type":"Feature","properties":{"line":"gwangju-1","ref":"1","name":"광주 도시철도 1호선: 평동 → 녹동","color":"#009088"},"geometry":{"type":"LineString","coordinates":[[126.935184,35.111186],[126.935159,35.110582],[126.935145,35.110244],[126.935124,35.109805]]}},{"type":"Feature","properties":{"line":"gwangju-1","ref":"1","name":"광주 도시철도 1호선: 평동 → 녹동","color":"#009088"},"geometry":{"type":"LineString","coordinates":[[126.934043,35.106815],[126.934053,35.10716],[126.934062,35.107319],[126.93407,35.107404],[126.934115,35.107574],[126.934243,35.107898],[126.934516,35.108407],[126.93464,35.108612],[126.934674,35.108678],[126.934919,35.109165],[126.935003,35.109414],[126.935104,35.1097],[126.935124,35.109805]]}},{"type":"Feature","properties":{"line":"gwangju-1","ref":"1","name":"광주 도시철도 1호선: 녹동 → 평동","color":"#009088"},"geometry":{"type":"LineString","coordinates":[[126.935124,35.109805],[126.935169,35.110059],[126.935199,35.110192],[126.935212,35.110583],[126.935239,35.111069],[126.93525,35.111214]]}},{"type":"Feature","properties":{"line":"gwangju-1","ref":"1","name":"광주 도시철도 1호선: 녹동 → 평동","color":"#009088"},"geometry":{"type":"LineString","coordinates":[[126.93525,35.111214],[126.935273,35.111964],[126.935328,35.113506]]}},{"type":"Feature","properties":{"line":"gwangju-1","ref":"1","name":"광주 도시철도 1호선: 녹동 → 평동","color":"#009088"},"geometry":{"type":"LineString","coordinates":[[126.935328,35.113506],[126.935327,35.11358]]}},{"type":"Feature","properties":{"line":"gwangju-1","ref":"1","name":"광주 도시철도 1호선: 녹동 → 평동","color":"#009088"},"geometry":{"type":"LineString","coordinates":[[126.935327,35.11358],[126.935359,35.114115],[126.935305,35.114515]]}},{"type":"Feature","properties":{"line":"gwangju-1","ref":"1","name":"광주 도시철도 1호선: 녹동 → 평동","color":"#009088"},"geometry":{"type":"LineString","coordinates":[[126.935305,35.114515],[126.935254,35.114736],[126.934793,35.115896]]}},{"type":"Feature","properties":{"line":"gwangju-1","ref":"1","name":"광주 도시철도 1호선: 녹동 → 평동","color":"#009088"},"geometry":{"type":"LineString","coordinates":[[126.934793,35.115896],[126.934736,35.11604],[126.933924,35.117983],[126.933745,35.118546],[126.93354,35.119754],[126.933429,35.120463],[126.933112,35.121358],[126.932549,35.122876],[126.932338,35.123452],[126.93227,35.123655],[126.932204,35.123855],[126.931596,35.125608],[126.930898,35.127293],[126.929962,35.129216],[126.92904,35.131324],[126.928196,35.133133],[126.928101,35.133304],[126.927844,35.133721],[126.927624,35.134065],[126.927189,35.134722],[126.926561,35.135469],[126.925393,35.136787],[126.923779,35.138282],[126.923033,35.139213],[126.922869,35.139406],[126.922545,35.139748],[126.922127,35.140236],[126.92129,35.141239],[126.920951,35.141739],[126.920777,35.142033],[126.920546,35.142452],[126.920491,35.142697],[126.920423,35.143033],[126.92041,35.143732],[126.920428,35.144264],[126.920427,35.144898],[126.920377,35.145324],[126.92033,35.145541],[126.920236,35.145842],[126.920109,35.14618],[126.920005,35.14645],[126.919869,35.146721],[126.919674,35.147059],[126.919416,35.147373],[126.91912,35.147647],[126.918884,35.14789],[126.918674,35.148052],[126.914603,35.150763],[126.910029,35.153779],[126.907529,35.155473],[126.906351,35.156215],[126.906064,35.156372],[126.90559,35.156542],[126.905301,35.156614],[126.905014,35.156638],[126.90479,35.156617],[126.904615,35.156592],[126.904283,35.156478],[126.903733,35.156212],[126.903181,35.155807],[126.901722,35.154561],[126.900567,35.153692],[126.900073,35.1533],[126.899782,35.153168],[126.897926,35.15252],[126.895531,35.151751],[126.894188,35.151315],[126.8929,35.150907],[126.891956,35.15063],[126.891576,35.150601],[126.891132,35.150639],[126.890767,35.150745],[126.890172,35.150977],[126.889443,35.151477],[126.88853,35.152404],[126.88786,35.153005],[126.887361,35.153337],[126.887143,35.153415],[126.886929,35.153474],[126.886566,35.153526],[126.886202,35.15356],[126.884117,35.153257],[126.883798,35.153208],[126.882502,35.153],[126.882141,35.15293],[126.87896,35.15232],[126.876847,35.151954],[126.875171,35.15172],[126.872433,35.151597],[126.869556,35.151535],[126.866739,35.151466],[126.864573,35.151347],[126.863979,35.151302],[126.862234,35.151055],[126.860066,35.150694],[126.858693,35.150442],[126.85701,35.15015],[126.856038,35.149976],[126.854894,35.149636],[126.854241,35.149365],[126.853846,35.149327],[126.853123,35.148991],[126.852249,35.148544],[126.851985,35.148422],[126.851723,35.148292],[126.851253,35.148054],[126.848818,35.146851],[126.84864,35.14677],[126.847805,35.146391],[126.846655,35.145889],[126.842445,35.143803],[126.841278,35.143198],[126.839405,35.14231],[126.837007,35.141134],[126.836212,35.140766],[126.834744,35.140334],[126.833663,35.140186],[126.832923,35.140136],[126.83214,35.140195],[126.830538,35.140528],[126.828717,35.141074],[126.826004,35.141828],[126.823139,35.142404],[126.820008,35.142935],[126.812895,35.143957],[126.811721,35.144158],[126.811414,35.14421],[126.809381,35.144235],[126.805691,35.144106],[126.800775,35.14367],[126.799507,35.14361],[126.798561,35.143565],[126.797145,35.143438],[126.796055,35.143108],[126.795342,35.142596],[126.79433,35.141501],[126.793051,35.140013],[126.792275,35.13883],[126.791573,35.137641],[126.791355,35.137292],[126.789215,35.13334],[126.788953,35.132923],[126.788637,35.132621],[126.787895,35.131852],[126.787552,35.131636],[126.786862,35.13124],[126.785096,35.130215]]}},{"type":"Feature","properties":{"line":"gwangju-1","ref":"1","name":"광주 도시철도 1호선: 녹동 → 평동","color":"#009088"},"geometry":{"type":"LineString","coordinates":[[126.785096,35.130215],[126.78235,35.128718],[126.782229,35.128658],[126.782069,35.128577]]}},{"type":"Feature","properties":{"line":"gwangju-1","ref":"1","name":"광주 도시철도 1호선: 녹동 → 평동","color":"#009088"},"geometry":{"type":"LineString","coordinates":[[126.782069,35.128577],[126.781584,35.128325],[126.779862,35.127409],[126.778459,35.126686],[126.777017,35.125928],[126.776489,35.125714],[126.775654,35.125454],[126.775284,35.125353],[126.77436,35.125241],[126.771373,35.124987],[126.770416,35.124896],[126.769735,35.124826],[126.768777,35.124746]]}}]}