{"type":"FeatureCollection","features":[{"type":"Feature","properties":{"line":"8","ref":"8","name":"서울 지하철 8호선: 별내 → 모란","color":"#E35D4D"},"geometry":{"type":"LineString","coordinates":[[127.128024,37.641803],[127.128665,37.64124],[127.130862,37.639201],[127.131686,37.638659],[127.132468,37.638215],[127.133377,37.637764],[127.135505,37.636841],[127.137779,37.636001],[127.144234,37.633248],[127.145024,37.632878],[127.146041,37.632268],[127.147366,37.6312],[127.148599,37.630212],[127.149366,37.629588],[127.149706,37.629256],[127.150002,37.628829],[127.150127,37.628553],[127.150194,37.628151],[127.150226,37.627621],[127.150175,37.626968],[127.149958,37.62547],[127.149826,37.624909],[127.149619,37.623748],[127.149529,37.623011],[127.149421,37.621845],[127.149301,37.620999],[127.149184,37.620584],[127.14906,37.620388],[127.148898,37.62019],[127.148672,37.619939],[127.148367,37.619635],[127.148061,37.619408],[127.147817,37.619254],[127.145836,37.618329],[127.143953,37.617401],[127.142279,37.616701],[127.141232,37.616262],[127.140195,37.615806],[127.139492,37.615419],[127.138953,37.615137],[127.138469,37.614697],[127.138234,37.614344],[127.138114,37.613846],[127.137961,37.612851],[127.13791,37.611787],[127.1379,37.611516],[127.137941,37.611106],[127.138011,37.610653],[127.138135,37.610174],[127.138274,37.609773],[127.138439,37.609271],[127.138826,37.608091],[127.139009,37.607559],[127.140469,37.603096],[127.141019,37.601637],[127.141266,37.60105],[127.141321,37.600932],[127.142134,37.599722],[127.142461,37.59923],[127.142636,37.598973],[127.142752,37.598652],[127.142788,37.598391],[127.142769,37.598104],[127.142671,37.597854],[127.142498,37.597525],[127.142187,37.597163],[127.14084,37.595938],[127.14024,37.595386],[127.139386,37.594616],[127.139038,37.594207],[127.138618,37.59375],[127.138325,37.593323],[127.13808,37.592864],[127.137893,37.592386],[127.137855,37.592114],[127.137864,37.587952],[127.137848,37.58649],[127.137939,37.579645],[127.138111,37.577776],[127.13826,37.576748],[127.139661,37.566739],[127.139788,37.566158],[127.140348,37.562681],[127.140459,37.561983],[127.140539,37.561316],[127.140643,37.560586],[127.140746,37.559963],[127.140756,37.559591],[127.140702,37.559257],[127.140618,37.558925],[127.14048,37.558679],[127.140308,37.558399],[127.14009,37.558176],[127.139758,37.557927],[127.139537,37.557812],[127.139315,37.557703],[127.138704,37.55746],[127.138068,37.557272],[127.137583,37.557154],[127.137085,37.557013],[127.136513,37.556897],[127.136229,37.556865],[127.135757,37.556821],[127.135164,37.55682],[127.134877,37.556823],[127.134645,37.556845],[127.134399,37.556867],[127.133997,37.556922],[127.133453,37.556987],[127.132877,37.557104],[127.132508,37.55714],[127.132152,37.557145],[127.131827,37.55713],[127.131506,37.557087],[127.131247,37.557039],[127.130989,37.556958],[127.13076,37.556862],[127.130523,37.55673],[127.130321,37.556613],[127.130007,37.556364],[127.129765,37.556132],[127.129625,37.555906],[127.129504,37.555619],[127.129274,37.555008],[127.12902,37.554396],[127.128774,37.553757]]}},{"type":"Feature","properties":{"line":"8","ref":"8","name":"서울 지하철 8호선: 별내 → 모란","color":"#E35D4D"},"geometry":{"type":"LineString","coordinates":[[127.128774,37.553757],[127.127989,37.551547],[127.127775,37.550943],[127.127075,37.549003]]}},{"type":"Feature","properties":{"line":"8","ref":"8","name":"서울 지하철 8호선: 별내 → 모란","color":"#E35D4D"},"geometry":{"type":"LineString","coordinates":[[127.127075,37.549003],[127.125843,37.54548],[127.12481,37.542644],[127.124058,37.540577],[127.123447,37.53876],[127.123204,37.538074],[127.12254,37.536257],[127.121366,37.533045],[127.120721,37.531061],[127.120598,37.530682],[127.120445,37.53027],[127.120319,37.530021],[127.119045,37.52778],[127.118553,37.52695],[127.118051,37.526258],[127.11767,37.525777],[127.117452,37.525491],[127.116378,37.524057],[127.115837,37.523197],[127.115533,37.522587],[127.115252,37.522068],[127.115005,37.521552],[127.114729,37.520751],[127.114576,37.520203],[127.114447,37.519862],[127.114143,37.519189],[127.113883,37.518755],[127.113513,37.518345],[127.113286,37.518088],[127.113096,37.5179],[127.112913,37.517737],[127.11265,37.51755],[127.112439,37.517456],[127.10585,37.515214],[127.103496,37.514319]]}},{"type":"Feature","properties":{"line":"8","ref":"8","name":"서울 지하철 8호선: 별내 → 모란","color":"#E35D4D"},"geometry":{"type":"LineString","coordinates":[[127.103496,37.514319],[127.102967,37.514131],[127.102489,37.513927],[127.102182,37.513775],[127.101952,37.513625],[127.101794,37.513515],[127.101689,37.513401],[127.101599,37.513233],[127.101511,37.513009],[127.10145,37.512839],[127.101418,37.512688],[127.101394,37.512335],[127.101401,37.512029],[127.101437,37.511654],[127.101486,37.511351],[127.101534,37.5112],[127.101604,37.511034],[127.101968,37.510513],[127.102159,37.51025],[127.10238,37.509951],[127.102584,37.509729],[127.102795,37.509509],[127.103163,37.509186],[127.103398,37.509042],[127.103743,37.508778],[127.104251,37.508369],[127.104797,37.507809],[127.107093,37.505304],[127.112251,37.499621],[127.114814,37.496774],[127.115692,37.495794],[127.116034,37.495431],[127.118148,37.493186],[127.118679,37.492499],[127.119244,37.491808],[127.119392,37.491603],[127.120035,37.490623],[127.120654,37.489564],[127.121467,37.487938],[127.121856,37.487157],[127.122484,37.48585],[127.124206,37.482529],[127.126037,37.478893],[127.126735,37.477607],[127.126821,37.477389],[127.126886,37.477183],[127.126969,37.476859],[127.127049,37.476361],[127.127062,37.476],[127.127043,37.475684],[127.126975,37.474822],[127.126724,37.472072],[127.126696,37.471696],[127.12661,37.470157],[127.126579,37.469747],[127.126501,37.468765],[127.126522,37.468445],[127.126566,37.468184],[127.126602,37.468049],[127.126665,37.467923],[127.126745,37.467833],[127.126842,37.46774],[127.126922,37.467674],[127.127034,37.467624],[127.127394,37.46754],[127.127761,37.467491],[127.128119,37.467364],[127.128496,37.467191],[127.129021,37.466955],[127.130474,37.466315],[127.133742,37.465029]]}},{"type":"Feature","properties":{"line":"8","ref":"8","name":"서울 지하철 8호선: 별내 → 모란","color":"#E35D4D"},"geometry":{"type":"LineString","coordinates":[[127.136825,37.46378],[127.133742,37.465029]]}},{"type":"Feature","properties":{"line":"8","ref":"8","name":"서울 지하철 8호선: 별내 → 모란","color":"#E35D4D"},"geometry":{"type":"LineString","coordinates":[[127.137093,37.463674],[127.13699,37.463715],[127.136825,37.46378]]}},{"type":"Feature","properties":{"line":"8","ref":"8","name":"서울 지하철 8호선: 별내 → 모란","color":"#E35D4D"},"geometry":{"type":"LineString","coordinates":[[127.139861,37.462432],[127.139797,37.462472],[127.138942,37.462891],[127.138373,37.463157],[127.137093,37.463674]]}},{"type":"Feature","properties":{"line":"8","ref":"8","name":"서울 지하철 8호선: 별내 → 모란","color":"#E35D4D"},"geometry":{"type":"LineString","coordinates":[[127.140086,37.462305],[127.139861,37.462432]]}},{"type":"Feature","properties":{"line":"8","ref":"8","name":"서울 지하철 8호선: 별내 → 모란","color":"#E35D4D"},"geometry":{"type":"LineString","coordinates":[[127.141308,37.46161],[127.140896,37.461853],[127.14084,37.461886],[127.140086,37.462305]]}},{"type":"Feature","properties":{"line":"8","ref":"8","name":"서울 지하철 8호선: 별내 → 모란","color":"#E35D4D"},"geometry":{"type":"LineString","coordinates":[[127.141442,37.461531],[127.141392,37.46156],[127.141308,37.46161]]}},{"type":"Feature","properties":{"line":"8","ref":"8","name":"서울 지하철 8호선: 별내 → 모란","color":"#E35D4D"},"geometry":{"type":"LineString","coordinates":[[127.144435,37.459859],[127.143442,37.460424],[127.142646,37.46085],[127.141442,37.461531]]}},{"type":"Feature","properties":{"line":"8","ref":"8","name":"서울 지하철 8호선: 별내 → 모란","color":"#E35D4D"},"geometry":{"type":"LineString","coordinates":[[127.130316,37.434034],[127.134361,37.434702],[127.135178,37.434854],[127.135756,37.435001],[127.136599,37.435287],[127.13703,37.435479],[127.137674,37.43577],[127.138381,37.436164],[127.140665,37.437457],[127.143956,37.439322],[127.145816,37.44031],[127.146212,37.440489],[127.147406,37.440936],[127.147625,37.441014],[127.14836,37.441281],[127.149627,37.441678],[127.15048,37.441958],[127.15132,37.442267],[127.152238,37.442658],[127.155468,37.444249],[127.155847,37.444452],[127.156378,37.444795],[127.156755,37.445093],[127.156924,37.445364],[127.157355,37.446143],[127.157762,37.446918],[127.157827,37.447047],[127.159804,37.451584],[127.160612,37.4534],[127.160639,37.453671],[127.160603,37.453836],[127.160532,37.453997],[127.160454,37.454106],[127.160037,37.454602],[127.159376,37.455112],[127.158992,37.455353],[127.158496,37.455648],[127.157916,37.455915],[127.157456,37.456051],[127.15671,37.456215],[127.156124,37.456304],[127.150674,37.456825],[127.150358,37.45684],[127.150065,37.456845],[127.149908,37.456848],[127.149692,37.456865],[127.149486,37.456903],[127.149163,37.457027],[127.14876,37.457209],[127.148482,37.45733],[127.148219,37.457482],[127.147851,37.457726],[127.14719,37.458208],[127.146256,37.458781],[127.14475,37.459673],[127.144435,37.459859]]}},{"type":"Feature","properties":{"line":"8","ref":"8","name":"서울 지하철 8호선: 모란 → 별내","color":"#E35D4D"},"geometry":{"type":"LineString","coordinates":[[127.130328,37.433994],[127.134372,37.434662],[127.135192,37.434815],[127.135773,37.434964],[127.136621,37.435251],[127.137055,37.435444],[127.137701,37.435736],[127.13841,37.436131],[127.140694,37.437424],[127.143985,37.439289],[127.145843,37.440275],[127.146235,37.440453],[127.147428,37.4409],[127.147646,37.440977],[127.14838,37.441244],[127.149646,37.441641],[127.1505,37.441921],[127.151343,37.442231],[127.152263,37.442623],[127.155495,37.444215],[127.155877,37.444419],[127.156413,37.444765],[127.156797,37.44507],[127.15697,37.445347],[127.157402,37.446127],[127.157809,37.446903],[127.157874,37.447033],[127.159852,37.451571],[127.160663,37.453392],[127.160691,37.453673],[127.160652,37.453847],[127.160578,37.454013],[127.160497,37.454128],[127.160076,37.454628],[127.15941,37.455142],[127.159023,37.455385],[127.158525,37.455682],[127.157937,37.455952],[127.157472,37.456089],[127.156722,37.456254],[127.156132,37.456344],[127.150679,37.456865],[127.15036,37.456881],[127.150066,37.456885],[127.149911,37.456888],[127.1497,37.456905],[127.149503,37.456941],[127.149187,37.457063],[127.148785,37.457244],[127.148509,37.457364],[127.14825,37.457514],[127.147884,37.457756],[127.147223,37.458239],[127.146287,37.458813],[127.144465,37.459892]]}},{"type":"Feature","properties":{"line":"8","ref":"8","name":"서울 지하철 8호선: 모란 → 별내","color":"#E35D4D"},"geometry":{"type":"LineString","coordinates":[[127.144465,37.459892],[127.143471,37.460458],[127.142675,37.460883],[127.141472,37.461563]]}},{"type":"Feature","properties":{"line":"8","ref":"8","name":"서울 지하철 8호선: 모란 → 별내","color":"#E35D4D"},"geometry":{"type":"LineString","coordinates":[[127.141472,37.461563],[127.141339,37.461642]]}},{"type":"Feature","properties":{"line":"8","ref":"8","name":"서울 지하철 8호선: 모란 → 별내","color":"#E35D4D"},"geometry":{"type":"LineString","coordinates":[[127.141339,37.461642],[127.14087,37.461919],[127.140115,37.462338]]}},{"type":"Feature","properties":{"line":"8","ref":"8","name":"서울 지하철 8호선: 모란 → 별내","color":"#E35D4D"},"geometry":{"type":"LineString","coordinates":[[127.140115,37.462338],[127.13989,37.462457]]}},{"type":"Feature","properties":{"line":"8","ref":"8","name":"서울 지하철 8호선: 모란 → 별내","color":"#E35D4D"},"geometry":{"type":"LineString","coordinates":[[127.13989,37.462457],[127.139765,37.46252],[127.139037,37.462879],[127.138669,37.463057],[127.138397,37.463192],[127.13712,37.463712]]}},{"type":"Feature","properties":{"line":"8","ref":"8","name":"서울 지하철 8호선: 모란 → 별내","color":"#E35D4D"},"geometry":{"type":"LineString","coordinates":[[127.13712,37.463712],[127.13685,37.463818]]}},{"type":"Feature","properties":{"line":"8","ref":"8","name":"서울 지하철 8호선: 모란 → 별내","color":"#E35D4D"},"geometry":{"type":"LineString","coordinates":[[127.13685,37.463818],[127.133765,37.465065]]}},{"type":"Feature","properties":{"line":"8","ref":"8","name":"서울 지하철 8호선: 모란 → 별내","color":"#E35D4D"},"geometry":{"type":"LineString","coordinates":[[127.103545,37.514276],[127.103011,37.514085],[127.102531,37.513884],[127.102157,37.513679],[127.101968,37.513559],[127.101841,37.513468],[127.101741,37.513375],[127.101638,37.513207],[127.10158,37.513052],[127.101507,37.512823],[127.101465,37.512616],[127.101449,37.512325],[127.101466,37.511996],[127.101497,37.511661],[127.101557,37.511387],[127.10159,37.511224],[127.101654,37.511049],[127.101995,37.510567],[127.102215,37.510271],[127.10241,37.510014],[127.102643,37.509783],[127.102877,37.509546],[127.103223,37.509231],[127.103886,37.50878],[127.10423,37.508488],[127.104816,37.507889],[127.107134,37.505328],[127.112293,37.499644],[127.114856,37.496797],[127.115733,37.495818],[127.11819,37.493208],[127.118722,37.492521],[127.119287,37.491829],[127.119437,37.491623],[127.12008,37.490641],[127.120701,37.489579],[127.121514,37.487952],[127.121903,37.487172],[127.122531,37.485865],[127.124253,37.482545],[127.126084,37.478908],[127.126783,37.477622],[127.12687,37.4774],[127.126936,37.477192],[127.127019,37.476866],[127.1271,37.476364],[127.127113,37.476],[127.127094,37.475682],[127.127026,37.47482],[127.126848,37.471646],[127.126666,37.468837],[127.126679,37.46843],[127.126693,37.468171],[127.126725,37.468046],[127.126814,37.467888],[127.126958,37.46776],[127.127033,37.467716],[127.12715,37.467674],[127.127291,37.467631],[127.127407,37.467595],[127.127777,37.467529],[127.128142,37.4674],[127.128522,37.467226],[127.129046,37.466991],[127.130498,37.466351],[127.133765,37.465065]]}},{"type":"Feature","properties":{"line":"8","ref":"8","name":"서울 지하철 8호선: 모란 → 별내","color":"#E35D4D"},"geometry":{"type":"LineString","coordinates":[[127.1278,37.550672],[127.125891,37.545469],[127.124859,37.542633],[127.124107,37.540566],[127.123496,37.53875],[127.123253,37.538063],[127.122589,37.536246],[127.121415,37.533034],[127.12077,37.531051],[127.120647,37.530671],[127.120493,37.530257],[127.120366,37.530005],[127.119254,37.527714],[127.118936,37.527015],[127.118542,37.526339],[127.118224,37.525765],[127.117831,37.525098],[127.117132,37.52417],[127.116393,37.523051],[127.115838,37.522291],[127.115499,37.521722],[127.115209,37.521157],[127.114875,37.520478],[127.114611,37.519785],[127.1142,37.519039],[127.114009,37.518754],[127.113833,37.518545],[127.113644,37.518345],[127.113372,37.51807],[127.113142,37.517845],[127.112932,37.517654],[127.112688,37.517472],[127.112486,37.517386],[127.105871,37.515177],[127.103545,37.514276]]}},{"type":"Feature","properties":{"line":"8","ref":"8","name":"서울 지하철 8호선: 모란 → 별내","color":"#E35D4D"},"geometry":{"type":"LineString","coordinates":[[127.128941,37.553734],[127.128839,37.553458],[127.128204,37.551735],[127.128126,37.551522],[127.127891,37.550909],[127.1278,37.550672]]}},{"type":"Feature","properties":{"line":"8","ref":"8","name":"서울 지하철 8호선: 모란 → 별내","color":"#E35D4D"},"geometry":{"type":"LineString","coordinates":[[127.128941,37.553734],[127.129079,37.554312],[127.129309,37.554956],[127.129593,37.555683],[127.129673,37.555887],[127.129819,37.55607],[127.130072,37.55633],[127.13039,37.556568],[127.130569,37.556679],[127.130809,37.556804],[127.131039,37.556888],[127.13127,37.556961],[127.131514,37.557008],[127.131843,37.557057],[127.132169,37.557077],[127.132421,37.557071],[127.133013,37.557014],[127.133368,37.556946],[127.133756,37.556885],[127.134144,37.556835],[127.134359,37.556811],[127.134648,37.556779],[127.134889,37.556757],[127.135187,37.556735],[127.135787,37.556761],[127.136202,37.556791],[127.136597,37.556837],[127.137056,37.556928],[127.137291,37.556987],[127.137606,37.557066],[127.138108,37.557215],[127.138763,37.557422],[127.139353,37.557656],[127.139814,37.557862],[127.140151,37.558093],[127.140381,37.558331],[127.140549,37.558599],[127.140693,37.558898],[127.140777,37.559233],[127.140823,37.559559],[127.140822,37.559957],[127.140738,37.560508],[127.140659,37.561281],[127.140551,37.561982],[127.140439,37.56273],[127.139871,37.566223],[127.139837,37.566775],[127.139424,37.569748],[127.138498,37.576757],[127.138263,37.577786],[127.138071,37.579726],[127.137974,37.586483],[127.137971,37.587981],[127.13797,37.58843],[127.137973,37.592092],[127.137996,37.592357],[127.13814,37.592775],[127.138454,37.593336],[127.138746,37.593727],[127.139013,37.594046],[127.139454,37.594563],[127.140112,37.595183],[127.14097,37.595894],[127.142185,37.597055],[127.14255,37.597458],[127.142747,37.597778],[127.142824,37.597968],[127.142884,37.598175],[127.142881,37.598401],[127.142848,37.598627],[127.142734,37.598983],[127.142556,37.599286],[127.142226,37.599744],[127.141385,37.600971],[127.141218,37.601379],[127.14102,37.601863],[127.140554,37.603109],[127.140432,37.603446],[127.139437,37.606544],[127.139276,37.607054],[127.139094,37.60764],[127.138837,37.608398],[127.138621,37.609052],[127.138404,37.609705],[127.138217,37.610387],[127.138089,37.610931],[127.138034,37.611341],[127.138026,37.611762],[127.138021,37.612224],[127.138069,37.612828],[127.138208,37.613698],[127.138352,37.6142],[127.138629,37.614633],[127.139063,37.615014],[127.139606,37.615331],[127.140137,37.615591],[127.141236,37.61617],[127.14388,37.6173],[127.145838,37.618208],[127.147861,37.619174],[127.148363,37.619498],[127.148635,37.619753],[127.148897,37.620016],[127.149073,37.62019],[127.149271,37.620537],[127.149385,37.620853],[127.149424,37.621097],[127.149545,37.622268],[127.149669,37.623468],[127.149702,37.623786],[127.149929,37.624893],[127.150253,37.627007],[127.150306,37.627594],[127.150296,37.628159],[127.150206,37.62857],[127.15007,37.62887],[127.149914,37.62914],[127.149742,37.629351],[127.149084,37.629938],[127.148635,37.630302],[127.147407,37.631264],[127.146057,37.632348],[127.145072,37.632975],[127.144176,37.633426],[127.137855,37.636048],[127.135589,37.636927],[127.133343,37.637837],[127.132458,37.638308],[127.131738,37.638735],[127.130997,37.639254],[127.12988,37.640231],[127.128084,37.641849],[127.126698,37.643004]]}}]}